address_details;city;employee_size;id;keywords;municipality;name;path;searchwords;trade_id;trade_name;workplace_name
Nils Ericsons väg 1, Håverud;Håverud;10-19;1619507;;80;Dalslands Kanal AB;companies/show/1619507;;1806;Stödtjänster till sjötransport;Administration
Sunnanå Säter 10, Mellerud;Mellerud;;1619679;;80;Minita AB;companies/show/1619679;;1758;Postorderhandel och detaljhandel på internet med övriga varor;
Ryrsvägen 16, Köpmannebro;Köpmannebro;0;1619863;;80;Mueller, Hanno;companies/show/1619863;;1580;Parti- och provisionshandel med reservdelar och tillbehör till motorfordon utom motorcyklar;
Töra Intakan 1, Mellerud;Mellerud;0;1620649;;80;J-Con Intakan;companies/show/1620649;;1945;Teknisk konsultverksamhet inom bygg och anläggningsteknik;
Pålbön 7, Mellerud;Mellerud;0;1620847;;80;"Killéns Trä &amp; Fönsterhantverk";companies/show/1620847;;1528;Byggande av bostadshus och andra byggnader;
Ryr Ödegården 5, Köpmannebro;Köpmannebro;0;1620863;;80;Karlsson, Karl Ingemar;companies/show/1620863;;1110;Drivning;
Stockenäs Blomstervägen 4, Mellerud;Mellerud;0;1620885;;80;Ra-Konsult;companies/show/1620885;;1946;Teknisk konsultverksamhet inom industriteknik;
Muggerud Väntebacken 1, Mellerud;Mellerud;0;1620937;;80;Larsson, Per Olov Arne;companies/show/1620937;;1098;Blandat jordbruk;
Kroppefjällsvägen 3, Dals Rostock;Dals Rostock;;1621296;;80;Myranehus AB;companies/show/1621296;;1831;Cateringverksamhet vid enskilda evenemang;
Ekholmens Säteri 1, Dals Rostock;Dals Rostock;0;1622087;;80;Biogas Dalsland Ekonomisk Förening;companies/show/1622087;;1504;Framställning av gas;
Norra Dyreberg 2, Mellerud;Mellerud;0;1623206;;80;Fredriksson, Sten Åke Lennart;companies/show/1623206;;1055;Odling av spannmål (utom ris), baljväxter och oljeväxter;
Gråfålerud Ängen 1, Mellerud;Mellerud;0;1623227;;80;Smedbäck, Karl-Anders Roland;companies/show/1623227;;1055;Odling av spannmål (utom ris), baljväxter och oljeväxter;
Storvägen 16, Åsensbruk;Åsensbruk;0;1687609;;80;Lynghammar Trading;companies/show/1687609;;1752;Postorderhandel och detaljhandel på internet med beklädnadsvaror;
Box 72, Mellerud;Mellerud;;1699917;;80;Cast i Göteborg AB;companies/show/1699917;;1920;Uthyrning och förvaltning av egna eller arrenderade industrilokaler;
Rävsalen 303, Fengersfors;Dals Rostock;0;1850544;;80;Guldåkers Snickeri;companies/show/1850544;;1471;Tillverkning av andra möbler;
Tångebyn 3, Dalskog;Dalskog;1-4;1850547;;80;Svensson, Nils Lennart;companies/show/1850547;;1083;Mjölkproduktion och uppfödning av nötkreatur och mjölkras;
Landsvägsgatan 36, Mellerud;Mellerud;200-499;1850548;"bilhandel
bilhandlare";80;Brandt Personbilar AB;companies/show/1850548;;1570;Handel med personbilar och lätta motorfordon;
Västerråda 1, Mellerud;Mellerud;;1850549;;80;Lundgren Dental AB;companies/show/1850549;;1482;Tillverkning av tandproteser;
Ransbergsvägen 6, Köpmannebro;Köpmannebro;0;1850550;;80;Johansson, Bengt Ture David;companies/show/1850550;;1920;Uthyrning och förvaltning av egna eller arrenderade industrilokaler;
Årbol 4, Dalskog;Dalskog;0;1850551;;80;Bengts Maskingrävning;companies/show/1850551;;1543;Mark- och grundarbeten;
Postgatan 22, Mellerud;Mellerud;0;1850555;;80;Karlsson, Bo Göran Ingvar;companies/show/1850555;;1110;Drivning;
Linnégatan 28, Mellerud;Mellerud;0;1850559;;80;Fredriksson, Anders John Gunnar;companies/show/1850559;;2132;Artistisk verksamhet;
Bråna 3, Mellerud;Mellerud;0;1850560;;80;Kraft, Jeanette Anna Maria;companies/show/1850560;;1921;Uthyrning och förvaltning av egna eller arrenderade, andra lokaler;
Nygården 8, Mellerud;Mellerud;1-4;1850561;;80;Gustafsson, Nils Olof Ingevald;companies/show/1850561;;1090;Uppfödning av slaktsvin;
Björnebol Backen 1, Mellerud;Mellerud;0;1850562;;80;Broberg, Stefan Kjell Ingemar;companies/show/1850562;;1089;Uppfödning av smågrisar;
Norra Östebo 9, Håverud;Håverud;0;1850563;;80;Möller, Jens-Torsten;companies/show/1850563;;1098;Blandat jordbruk;
Tegen 3, Dalskog;Dalskog;0;1850564;;80;Jansson, Anders Klaes-Göran;companies/show/1850564;;1098;Blandat jordbruk;
Gerdsrud 13, Mellerud;Mellerud;0;1850567;;80;Lidberg, Jessica Mari;companies/show/1850567;;1567;Övrig specialiserad bygg- och anläggningsverksamhet;
Krokfors Gård 1, Mellerud;Mellerud;0;1850568;;80;Andersson, Karl Anders Lennart;companies/show/1850568;;1098;Blandat jordbruk;
Karlavagnsgatan 14, Mellerud;Mellerud;0;1850569;"bilverkstad
bilreparation
bilreparationer
bilservice
";80;Ahlström, Joakim Jan;companies/show/1850569;;1575;Allmän service och reparation av motorfordon utom motorcyklar;
Kabbo Intagan 1, Dalskog;Dalskog;0;1850570;;80;Andersson, David Andreas;companies/show/1850570;;1098;Blandat jordbruk;
Lågen 1, Mellerud;Mellerud;0;1850571;;80;Persson, Lars Ingemar;companies/show/1850571;;1055;Odling av spannmål (utom ris), baljväxter och oljeväxter;
Östanå Gård 2, Mellerud;Mellerud;0;1850573;;80;Krus, John-Erik Roland;companies/show/1850573;;1068;Odling av övriga ett- och tvååriga växter;
Snickargatan 2, Mellerud;Mellerud;1000-1499;1850574;;80;Melleruds Kommun;companies/show/1850574;;2060;Grundskoleutbildning och förskoleklass;Nordalsskolan
Vallmogatan 22, Mellerud;Mellerud;1000-1499;1850575;;80;Melleruds Kommun;companies/show/1850575;;2110;Boende med särskild service för personer med utvecklingsstörning, psykiska funktionshinder eller missbruksproblem;Servicebostad Vallmogatan
Norra Kungsgatan 30, Mellerud;Mellerud;1000-1499;1850576;;80;Melleruds Kommun;companies/show/1850576;;2058;Förskoleutbildning;Förskola Lunden
Kvarnvägen 4, Åsensbruk;Åsensbruk;1000-1499;1850577;;80;Melleruds Kommun;companies/show/1850577;;2060;Grundskoleutbildning och förskoleklass;Åsens Skola
Parkgatan 6, Mellerud;Mellerud;1000-1499;1850578;;80;Melleruds Kommun;companies/show/1850578;;2060;Grundskoleutbildning och förskoleklass;Rådaskolan
Barkvägen 3, Åsensbruk;Åsensbruk;1000-1499;1850579;;80;Melleruds Kommun;companies/show/1850579;;2114;Vård och omsorg i särskilda boendeformer för äldre;Skållerudshemmet
Åsebro Skola, Mellerud;Mellerud;1000-1499;1850580;;80;Melleruds Kommun;companies/show/1850580;;2060;Grundskoleutbildning och förskoleklass;Åsebro Skola
Algatan 1, Mellerud;Mellerud;1000-1499;1850581;;80;Melleruds Kommun;companies/show/1850581;;2110;Boende med särskild service för personer med utvecklingsstörning, psykiska funktionshinder eller missbruksproblem;Boendestöd Villa Kvarnen
Karolinervägen 19, Dals Rostock;Dals Rostock;1000-1499;1850582;;80;Melleruds Kommun;companies/show/1850582;;2060;Grundskoleutbildning och förskoleklass;Karolinerskolan
Kärragatan 18, Mellerud;Mellerud;1000-1499;1850583;;80;Melleruds Kommun;companies/show/1850583;;1539;Övriga anläggningsarbeten;Kommunförråd
, Mellerud;Dals Rostock;1000-1499;1850584;;80;Melleruds Kommun;companies/show/1850584;;1514;Insamling av icke-farligt avfall;Hunnebyns Avfallsanläggning
Kroppefjällshemmet 1-2, Dals Rostock;Dals Rostock;1000-1499;1850585;;80;Melleruds Kommun;companies/show/1850585;;2114;Vård och omsorg i särskilda boendeformer för äldre;Kroppefjällshemmet
Gerdsrud Skräcklan 5, Mellerud;Mellerud;1000-1499;1850586;;80;Melleruds Kommun;companies/show/1850586;;2110;Boende med särskild service för personer med utvecklingsstörning, psykiska funktionshinder eller missbruksproblem;Gruppbostad Gården
Parkgatan 6, Mellerud;Mellerud;1000-1499;1850587;;80;Melleruds Kommun;companies/show/1850587;;2132;Artistisk verksamhet;Kulturbruket På Dal
P D Lundgrensgatan 10, Mellerud;Mellerud;1000-1499;1850588;;80;Melleruds Kommun;companies/show/1850588;;2110;Boende med särskild service för personer med utvecklingsstörning, psykiska funktionshinder eller missbruksproblem;Gruppbostad P D Lundgrensgatan
Norra Kungsgatan 1, Mellerud;Mellerud;1000-1499;1850589;;80;Melleruds Kommun;companies/show/1850589;;2110;Boende med särskild service för personer med utvecklingsstörning, psykiska funktionshinder eller missbruksproblem;Trygghetsboende Axet
Kyrkogatan 5, Mellerud;Mellerud;1000-1499;1850590;;80;Melleruds Kommun;companies/show/1850590;;2114;Vård och omsorg i särskilda boendeformer för äldre;Bergs Äldreboende och Hemsjukvård
Karolinervägen 19, Dals Rostock;Dals Rostock;1000-1499;1850591;;80;Melleruds Kommun;companies/show/1850591;;2058;Förskoleutbildning;Kroppefjälls Barnstuga
Odengatan 35 A, Mellerud;Mellerud;1000-1499;1850592;;80;Melleruds Kommun;companies/show/1850592;;2058;Förskoleutbildning;Markusgården Förskola
, Mellerud;Mellerud;1000-1499;1850593;;80;Melleruds Kommun;companies/show/1850593;;2121;Öppna sociala insatser för äldre personer;Kommunkontor
Norra Skälebol Mon 1, Mellerud;Mellerud;0;1850594;;80;Rylander, Bengt Uno;companies/show/1850594;;1098;Blandat jordbruk;
Linnégatan 54, Mellerud;Mellerud;1000-1499;1850595;;80;Melleruds Kommun;companies/show/1850595;;2110;Boende med särskild service för personer med utvecklingsstörning, psykiska funktionshinder eller missbruksproblem;Servicebostad Linnegatan
, Mellerud;Mellerud;1000-1499;1850596;;80;Melleruds Kommun;companies/show/1850596;;1511;Avloppsrening;Va Verk
Rostocksgatan 31, Mellerud;Mellerud;1000-1499;1850597;;80;Melleruds Kommun;companies/show/1850597;;2110;Boende med särskild service för personer med utvecklingsstörning, psykiska funktionshinder eller missbruksproblem;Gruppbostad Rostocksgatan
Storgatan 17, Mellerud;Mellerud;1000-1499;1850598;;80;Melleruds Kommun;companies/show/1850598;;2065;Kommunal vuxenutbildning o.d.;Arbetsmarknadsenhet, Lär och Utveck
Magasinsgatan 37, Mellerud;Mellerud;1000-1499;1850599;;80;Melleruds Kommun;companies/show/1850599;;2110;Boende med särskild service för personer med utvecklingsstörning, psykiska funktionshinder eller missbruksproblem;Gruppbostad Magasinsgatan
Kvarnvägen 6, Åsensbruk;Åsensbruk;1000-1499;1850600;;80;Melleruds Kommun;companies/show/1850600;;2058;Förskoleutbildning;Förskola Tallåsen
Odengatan 63, Mellerud;Mellerud;1000-1499;1850601;;80;Melleruds Kommun;companies/show/1850601;;2122;Öppna sociala insatser för personer med funktionshinder;Dagcenter Frykens Träcenter
Långgatan 32 A, Mellerud;Mellerud;1000-1499;1850602;;80;Melleruds Kommun;companies/show/1850602;;2110;Boende med särskild service för personer med utvecklingsstörning, psykiska funktionshinder eller missbruksproblem;Servicebostad Långgatan
Södra Kungsgatan 7, Mellerud;Mellerud;1000-1499;1850603;;80;Melleruds Kommun;companies/show/1850603;;2138;Biblioteksverksamhet;Bibliotek och Utställningsavdelning
Storgatan, Mellerud;Mellerud;1000-1499;1850604;;80;Melleruds Kommun;companies/show/1850604;;2122;Öppna sociala insatser för personer med funktionshinder;Utegruppen Cafe och Butik
Bringsrovägen 36, Dals Rostock;Dals Rostock;1000-1499;1850605;;80;Melleruds Kommun;companies/show/1850605;;2110;Boende med särskild service för personer med utvecklingsstörning, psykiska funktionshinder eller missbruksproblem;Gruppbostad Blåklinten Kök Karoline
Storgatan 79, Mellerud;Mellerud;1000-1499;1850607;;80;Melleruds Kommun;companies/show/1850607;;2060;Grundskoleutbildning och förskoleklass;Fagerlidsskolan
Aspgatan 15, Mellerud;Mellerud;1000-1499;1850608;;80;Melleruds Kommun;companies/show/1850608;;2114;Vård och omsorg i särskilda boendeformer för äldre;Fagerlidshemmet
Parkgatan 8, Mellerud;Mellerud;1000-1499;1850609;;80;Melleruds Kommun;companies/show/1850609;;2064;Studieförberedande gymnasial utbildning;Dahlstiernska Gymnasiet
Algatan 8, Mellerud;Mellerud;;1850611;;80;"Pejo &amp; Co AB";companies/show/1850611;;1961;Övrig reklamverksamhet;
Gatan 13, Mellerud;Mellerud;0;1850613;;80;Pettersson, Lars Johan Håkan;companies/show/1850613;;1239;Tillverkning av monteringsfärdiga trähus;
Mellerudsgatan 10, Mellerud;Mellerud;0;1850614;frisör frisörer frissa hårklippning;80;Christina Karlsson Klipper;companies/show/1850614;;2187;Hårvård;
Ör Hällan 2, Mellerud;Mellerud;0;1850615;snickare;80;Eriksson, Per Bertil Lennart;companies/show/1850615;;1555;Byggnadssnickeriarbeten;
Norra Kungsgatan 1, Mellerud;Mellerud;3000-3999;1850619;;80;Apotek Hjärtat AB;companies/show/1850619;;1726;Apotekshandel;Apotek Hjärtat
Verkstadsgatan 4, Mellerud;Mellerud;1-4;1850620;;80;Melleruds Färg AB;companies/show/1850620;;1694;Specialiserad butikshandel med färger, fernissor och lacker;
Storgatan 16, Mellerud;Mellerud;10-19;1850621;;80;AB Melleruds Bostäder;companies/show/1850621;;1919;Uthyrning och förvaltning av egna eller arrenderade bostäder;
Frestersbyn Ör, Mellerud;Mellerud;50-99;1850624;;80;AB Örs Cementgjuteri;companies/show/1850624;;1332;Tillverkning av betongvaror för byggändamål;
Qvantenburgs Säteri 1, Mellerud;Mellerud;5-9;1850625;;80;Dalslands Gris AB;companies/show/1850625;;1090;Uppfödning av slaktsvin;
Byggmästargatan 4, Mellerud;Mellerud;1-4;1850626;;80;Melleruds Ytbehandling AB;companies/show/1850626;;1377;Beläggning och överdragning av metall;
Kyrkogatan 2, Mellerud;Mellerud;0;1850627;;80;Vivian Johansen Dalslands Skylt o Reklam;companies/show/1850627;;1959;Reklambyråverksamhet;
Erikstad Kärr 1, Mellerud;Mellerud;0;1850631;;80;"Södra Kärr&#39;s Lantbruk Handelsbolag";companies/show/1850631;;1098;Blandat jordbruk;
Nygårdsåker Näset 1, Mellerud;Mellerud;0;1850632;;80;Eriksson, Gösta Anders Magnus;companies/show/1850632;;1089;Uppfödning av smågrisar;
Kuseruds Gård 1, Mellerud;Mellerud;0;1850633;;80;Andersson, Rune Göran;companies/show/1850633;;1921;Uthyrning och förvaltning av egna eller arrenderade, andra lokaler;
Box 103, Mellerud;Mellerud;500-999;1850636;;80;Fonus, Ekonomisk Förening;companies/show/1850636;;2189;Begravningsverksamhet;Fonus Mellerud
Bolstad Ängebacken 1, Mellerud;Mellerud;0;1850638;;80;Palm, Erik Gustav Sigvard;companies/show/1850638;;1098;Blandat jordbruk;
Södergatan 15, Mellerud;Mellerud;0;1850642;;80;"West-Bike Motor &amp; Service";companies/show/1850642;;1582;Handel med och service av motorcyklar inklusive reservdelar och tillbehör;
Qvantenburgs Säteri 1, Mellerud;Mellerud;5-9;1850645;;80;Qvantenburgs Säteri AB;companies/show/1850645;;1098;Blandat jordbruk;
Anolfsbyn Adamserud 3, Mellerud;Mellerud;0;1850647;;80;Redovisningsbyrån Falk Ekonomi i Mellerud AB;companies/show/1850647;;1114;Övrig service till skogsbruk;
Svalungebyn 3, Mellerud;Mellerud;0;1850649;;80;Henriksson, Tomas Charles Joakim;companies/show/1850649;;1945;Teknisk konsultverksamhet inom bygg och anläggningsteknik;
Bråna, Mellerud;Mellerud;1-4;1850650;;80;Wallins Lantbruk AB;companies/show/1850650;;1055;Odling av spannmål (utom ris), baljväxter och oljeväxter;
Box 72, Mellerud;Mellerud;;1850651;;80;Österråda Ekonomikonsult AB;companies/show/1850651;;1933;Redovisning och bokföring;
Södra Östebo 4, Håverud;Håverud;;1850652;;80;Hellerström Informationskonsult;companies/show/1850652;;1939;Pr och kommunikation;
Hjalmars väg 2, Dals Rostock;Dals Rostock;200-499;1850653;;80;Joab Försäljnings AB;companies/show/1850653;;1451;Tillverkning av andra delar och tillbehör till motorfordon och motorer;
Sapphultsgatan, Mellerud;Mellerud;0;1850655;;80;Fritzéns Maskin Fastighets Handelsbolag;companies/show/1850655;;1921;Uthyrning och förvaltning av egna eller arrenderade, andra lokaler;
Trollungebyn 3, Dalskog;Dalskog;0;1850660;;80;Eriksson, Ulla Ingegärd;companies/show/1850660;;1831;Cateringverksamhet vid enskilda evenemang;
Östevatten 11, Mellerud;Mellerud;0;1850665;;80;Bengtsson, Anders Lennart;companies/show/1850665;;1098;Blandat jordbruk;
Guttvik 1, Mellerud;Mellerud;0;1850667;;80;Olin, Jean Olof Valdemar;companies/show/1850667;;1098;Blandat jordbruk;
Anolfsbol 7, Mellerud;Mellerud;0;1850668;;80;Pettersson, Lars Åke Gunnar;companies/show/1850668;;1055;Odling av spannmål (utom ris), baljväxter och oljeväxter;
Karlsfält 1, Mellerud;Mellerud;1-4;1850673;;80;Magnusson, Lars Helge;companies/show/1850673;;1055;Odling av spannmål (utom ris), baljväxter och oljeväxter;
Mossen 3, Mellerud;Mellerud;0;1850676;Åkeri;80;Sandberg, Stig Evald;companies/show/1850676;;1775;Vägtransport, godstrafik;
Söbyn 2, Mellerud;Mellerud;0;1850678;;80;Hjalmarsson, Lars Erik Lennart;companies/show/1850678;;1055;Odling av spannmål (utom ris), baljväxter och oljeväxter;
Ör Högen 10, Mellerud;Mellerud;0;1850681;;80;Granats Maskinservice;companies/show/1850681;;1055;Odling av spannmål (utom ris), baljväxter och oljeväxter;
Östevatten 1, Mellerud;Mellerud;0;1850685;"bilverkstad
bilreparation
bilreparationer
bilservice
";80;Alfredsson, Mikael Per Åke;companies/show/1850685;;1575;Allmän service och reparation av motorfordon utom motorcyklar;
Svankila Edet 1, Köpmannebro;Köpmannebro;0;1850687;;80;Johansson, Sigvard Jan Rickard;companies/show/1850687;;1114;Övrig service till skogsbruk;
Bolstad Torp Iblyckan 1, Mellerud;Mellerud;0;1850688;;80;Andersson, Lars Olof Bertil;companies/show/1850688;;1098;Blandat jordbruk;
Atterud 1, Mellerud;Mellerud;0;1850689;;80;"K-E:s Bil &amp; Däck";companies/show/1850689;;1098;Blandat jordbruk;
Örs Prästgård 3, Mellerud;Mellerud;0;1850693;"akupunktur
sjukgymnastik
fotvård
kiropraktor";80;Svenska Institutet För Integrativ Zonterapi Hand;companies/show/1850693;;2105;Fysioterapeutisk verksamhet o.d;
Lapperud Snäckerud 1, Dalskog;Dalskog;0;1850699;elektriker;80;Dals Elservice;companies/show/1850699;;1546;Elinstallationer;
Gunvarbyn 2, Mellerud;Mellerud;0;1850700;;80;Svensson, Bror Klas-Peter;companies/show/1850700;;1068;Odling av övriga ett- och tvååriga växter;
Kurravägen 7, Mellerud;Mellerud;5-9;1850703;Åkeri;80;Bengan Brobergs Åkeri AB;companies/show/1850703;;1775;Vägtransport, godstrafik;
Vena Säby 3, Mellerud;Mellerud;0;1850705;;80;Karlsson, Agneta Birgitta;companies/show/1850705;;1055;Odling av spannmål (utom ris), baljväxter och oljeväxter;
Södra Bränna 1, Åsensbruk;Åsensbruk;0;1850706;;80;Edsberger, Anders Lars-Olof;companies/show/1850706;;1098;Blandat jordbruk;
Svärdsviken 1, Köpmannebro;Köpmannebro;0;1850708;;80;Tinas Medial Vägledning;companies/show/1850708;;2191;Övriga konsumenttjänster;
Karolinervägen 11, Dals Rostock;Dals Rostock;0;1850709;;80;Olsson, Bo Lennart;companies/show/1850709;;1120;Sötvattensfiske;
Svecklingebyn Grinden 1, Mellerud;Mellerud;0;1850710;;80;Janséns Maskin;companies/show/1850710;;1055;Odling av spannmål (utom ris), baljväxter och oljeväxter;
Järn Korsgården 1, Mellerud;Mellerud;0;1850711;;80;Sundström, Helena Margareta;companies/show/1850711;;1055;Odling av spannmål (utom ris), baljväxter och oljeväxter;
Västanväga 1, Mellerud;Mellerud;0;1850712;;80;Johansson, Lars Göran;companies/show/1850712;;1055;Odling av spannmål (utom ris), baljväxter och oljeväxter;
Örnäs 2, Mellerud;Mellerud;0;1850713;snickare;80;Larsson, Hans Mikael;companies/show/1850713;;1555;Byggnadssnickeriarbeten;
Gerdsrud 13, Mellerud;Mellerud;0;1850714;;80;Lidberg, Johnny Carl-Johan;companies/show/1850714;;1567;Övrig specialiserad bygg- och anläggningsverksamhet;
Anolfsbol 1, Mellerud;Mellerud;0;1850715;;80;Lantz, Carl Ingemar;companies/show/1850715;;1098;Blandat jordbruk;
Bäckens Gård 1, Mellerud;Mellerud;1-4;1850716;;80;Gajan Biogas AB;companies/show/1850716;;1504;Framställning av gas;
Ransbergsvägen 28, Köpmannebro;Köpmannebro;;1850717;snickare;80;Köpmannebro Allbygg AB;companies/show/1850717;;1555;Byggnadssnickeriarbeten;
Bolstad Torp 12, Mellerud;Mellerud;1-4;1850718;;80;Cugnot AB;companies/show/1850718;;2134;Litterärt och konstnärligt skapande;
Ör Torp, Mellerud;Mellerud;1-4;1850719;;80;Auto-Gruppen i VästSverige AB;companies/show/1850719;;1580;Parti- och provisionshandel med reservdelar och tillbehör till motorfordon utom motorcyklar;
Landsvägsgatan 9, Mellerud;Mellerud;0;1850724;;80;BF Nöje;companies/show/1850724;;2133;Stödtjänster till artistisk verksamhet;
Rud Håltane, Mellerud;Mellerud;10-19;1850727;;80;Byggstål Mellerud AB;companies/show/1850727;;1375;Smidning, pressning, prägling och valsning av metall pulvermetallurgi;
Gillesbyns Gård 1, Mellerud;Mellerud;1-4;1850730;;80;Gillesbyns Gård AB;companies/show/1850730;;1098;Blandat jordbruk;
Gerdsrud 11, Mellerud;Mellerud;0;1850731;;80;Edén, Maj Kerstin Susanne;companies/show/1850731;;1098;Blandat jordbruk;
Högstorp Korpås 1, Mellerud;Mellerud;0;1850732;;80;Pettersson, Börje Eskil;companies/show/1850732;;1098;Blandat jordbruk;
Teåker Gråbo 1, Bäckefors;Bäckefors;0;1850733;;80;Jonasson, Lars Anders Stefan;companies/show/1850733;;1107;Skogsförvaltning;
Assareby Berga Grankullen 1, Mellerud;Mellerud;0;1850735;;80;Johansson, Karl Kenneth;companies/show/1850735;;1055;Odling av spannmål (utom ris), baljväxter och oljeväxter;
Högängen 1, Mellerud;Mellerud;0;1850736;;80;Olsson, Karl Anders Bertil;companies/show/1850736;;1083;Mjölkproduktion och uppfödning av nötkreatur och mjölkras;
Smedsberg 1, Mellerud;Mellerud;0;1850737;;80;Lans, Sven Anders Mikael;companies/show/1850737;;1055;Odling av spannmål (utom ris), baljväxter och oljeväxter;
Håltane Storängen 1, Mellerud;Mellerud;0;1850738;;80;Björk, Björn Lennart Per-Inge;companies/show/1850738;;1378;Metallegoarbeten;
Österråda Vallbo 1, Mellerud;Mellerud;0;1850746;;80;Göran Fredrikssons Entreprenadfirma;companies/show/1850746;;1920;Uthyrning och förvaltning av egna eller arrenderade industrilokaler;
Sapphultsgatan 14, Mellerud;Mellerud;5-9;1850748;;80;Peter Svensson Plåtslageri i Mellerud AB;companies/show/1850748;;1378;Metallegoarbeten;
Box 124, Mellerud;Mellerud;;1850749;;80;Roslinds Förvaltning AB;companies/show/1850749;;1907;Verksamhet utförd av värdepappers- och varumäklare;
Ryrsvägen 16, Köpmannebro;Köpmannebro;0;1850751;;80;Mueller, Tanja;companies/show/1850751;;1740;Övrig specialiserad butikshandel;
Östevatten, Mellerud;Mellerud;;1850752;;80;Pytec AB;companies/show/1850752;;1084;Uppfödning av andra nötkreatur och bufflar;
Södra Östanå 1, Mellerud;Mellerud;1-4;1850753;;80;Blomgrens Fastigheter AB;companies/show/1850753;;1919;Uthyrning och förvaltning av egna eller arrenderade bostäder;
Fagerlidsgatan 5, Mellerud;Mellerud;0;1850758;;80;Johansson, Ulf Viktor;companies/show/1850758;;1107;Skogsförvaltning;
Näs Stenlyckan 1, Mellerud;Mellerud;0;1850761;;80;Svensson, Anders Gunnar Robert;companies/show/1850761;;1090;Uppfödning av slaktsvin;
Västra Lindstorp 1, Mellerud;Mellerud;0;1850762;;80;Andersson, Göran Hjalmar;companies/show/1850762;;1921;Uthyrning och förvaltning av egna eller arrenderade, andra lokaler;
Årbol 8, Dalskog;Dalskog;0;1850763;Åkeri;80;Thomas Jakobssons Åkeri;companies/show/1850763;;1775;Vägtransport, godstrafik;
Heden 8, Dalskog;Dalskog;0;1850765;;80;Zonart Join;companies/show/1850765;;1940;Konsultverksamhet avseende företags organisation;
Backa 1, Dals Rostock;Dals Rostock;1-4;1850767;;80;Backa Entreprenad o Konsult AB;companies/show/1850767;;1646;Partihandel med bränslen;
Ryttargatan 8, Mellerud;Mellerud;0;1850769;;80;Andreasson, Leif Evald;companies/show/1850769;;1084;Uppfödning av andra nötkreatur och bufflar;
Siribyn 6, Mellerud;Mellerud;0;1850770;;80;Andersson, Monica Elisabet;companies/show/1850770;;1055;Odling av spannmål (utom ris), baljväxter och oljeväxter;
Storgatan 54, Mellerud;Mellerud;5-9;1850771;livsmedelsaffär;80;Kvarnkullens Livs i Mellerud AB;companies/show/1850771;;1668;Livsmedelshandel med brett sortiment, ej varuhus eller stormarknad;Hemköp
Norra Hagen 7, Mellerud;Mellerud;0;1850772;;80;Andersson, Sölve Roger;companies/show/1850772;;1055;Odling av spannmål (utom ris), baljväxter och oljeväxter;
Ör Högen 8, Mellerud;Mellerud;0;1850774;;80;Firma Gunnar Granat;companies/show/1850774;;1528;Byggande av bostadshus och andra byggnader;
Hällebäck 6, Mellerud;Mellerud;0;1850775;"Rörmokare
rörmokeri";80;"Melleruds Rör &amp; Värme";companies/show/1850775;;1548;Värme- och sanitetsarbeten;
Dalbergså 7, Mellerud;Mellerud;0;1850777;;80;Nilsson, Lars Bertil William;companies/show/1850777;;1098;Blandat jordbruk;
Svecklingebyn 4, Mellerud;Mellerud;0;1850778;;80;Hjälte, Leif Roine Birger;companies/show/1850778;;1100;Service till växtodling;
Östevatten 14, Mellerud;Mellerud;0;1850783;;80;Herbertsson, Conny Bernt-Åke;companies/show/1850783;;1084;Uppfödning av andra nötkreatur och bufflar;
Östra Vässby 1, Mellerud;Mellerud;;1850786;;80;Vedbyholm Lantbruk AB;companies/show/1850786;;1055;Odling av spannmål (utom ris), baljväxter och oljeväxter;
Box 94, Mellerud;Mellerud;20-49;1850789;;80;Melleruds Pastorat;companies/show/1850789;;2168;Verksamhet i religiösa samfund;Kyrkans Hus
Box 94, Mellerud;Mellerud;20-49;1850796;;80;Melleruds Pastorat;companies/show/1850796;;2168;Verksamhet i religiösa samfund;Holms Kyrka Kyrkogård
Nygården 10, Mellerud;Mellerud;0;1850805;;80;Mårtensson, Bror Conway;companies/show/1850805;;1098;Blandat jordbruk;
Oxgatan 39, Mellerud;Mellerud;0;1850813;;80;Ove Anderssons Byggtjänst;companies/show/1850813;;1528;Byggande av bostadshus och andra byggnader;
Bredgården Bergen 2, Mellerud;Mellerud;0;1850814;;80;Svensson, Sven Jan;companies/show/1850814;;1055;Odling av spannmål (utom ris), baljväxter och oljeväxter;
Ransbergsvägen 36, Köpmannebro;Köpmannebro;0;1850815;;80;Boquist, Bengt Olof;companies/show/1850815;;1945;Teknisk konsultverksamhet inom bygg och anläggningsteknik;
Storgatan 34  Lgh 1102, Vänersborg;Mellerud;0;1850825;;80;Andrén, Karin Dagmar Annette;companies/show/1850825;;1098;Blandat jordbruk;
Äckerud Gossane 1, Mellerud;Mellerud;1-4;1850829;;80;Ingvarsson, Dan Joakim;companies/show/1850829;;1068;Odling av övriga ett- och tvååriga växter;
Gillesbyn Venaström 1, Mellerud;Mellerud;0;1850835;;80;Ervings Gräv;companies/show/1850835;;1566;Uthyrning av bygg- och anläggningsmaskiner med förare;
Ymers gata 1, Mellerud;Mellerud;10-19;1850836;;80;B.On Plåtbearbetning AB;companies/show/1850836;;1920;Uthyrning och förvaltning av egna eller arrenderade industrilokaler;
Tingshusgatan 1, Mellerud;Mellerud;5-9;1850839;"hotell
hotel
hotell med restaurang
hotell med restaurant";80;Wärs AB;companies/show/1850839;;1820;Hotellverksamhet med restaurangrörelse;
Kolungens Gård 2, Mellerud;Dals Rostock;10-19;1850843;;80;Industri- och Transportlackering i Mellerud;companies/show/1850843;;1377;Beläggning och överdragning av metall;
Nygården 1, Mellerud;Mellerud;0;1850844;;80;Nygårdens Energi;companies/show/1850844;;1507;Försörjning av värme och kyla;
Våtekärr 1, Mellerud;Mellerud;0;1850847;;80;Johan Aronsson Entreprenad;companies/show/1850847;;1543;Mark- och grundarbeten;
Bolstad Mellom Torp 3, Mellerud;Mellerud;0;1850848;;80;Klingberg, Glenn Henrik Torgny;companies/show/1850848;;1055;Odling av spannmål (utom ris), baljväxter och oljeväxter;
Box 59, Mellerud;Mellerud;200-499;1850849;;80;Daloc AB;companies/show/1850849;;1369;Tillverkning av dörrar och fönster av metall;
Kornsjögatan 1, Mellerud;Mellerud;5-9;1850851;elektriker;80;Nya AB Melleruds Elektriska Affär;companies/show/1850851;;1546;Elinstallationer;
Järn Låssbyn 2, Mellerud;Mellerud;5-9;1850852;plåtslageri;80;Sven Norgrens Plåt AB;companies/show/1850852;;1563;Takarbeten av plåt;
Odengatan 40, Mellerud;Mellerud;5-9;1850853;"Rörmokare
rörmokeri";80;Rörtjänst i Mellerud AB;companies/show/1850853;;1548;Värme- och sanitetsarbeten;
Nygården 4, Mellerud;Mellerud;0;1850857;;80;Larsson, Sven Karl Gunnar;companies/show/1850857;;1083;Mjölkproduktion och uppfödning av nötkreatur och mjölkras;
Sapphultsgatan, Mellerud;Mellerud;5-9;1850860;;80;Fritzéns Maskin AB;companies/show/1850860;;1714;Specialiserad butikshandel med båtar;
Sunnanå Säter 8, Mellerud;Mellerud;0;1850861;;80;Däckarna Fastighet AB;companies/show/1850861;;1920;Uthyrning och förvaltning av egna eller arrenderade industrilokaler;
Kambol 7, Mellerud;Mellerud;1-4;1850862;bensinstation;80;Dalslands Hydraulik och Handel AB;companies/show/1850862;;1684;Specialiserad detaljhandel med drivmedel;
Lövåsvägen 29, Dals Rostock;Dals Rostock;0;1850865;;80;Musik Musik Blom Sören;companies/show/1850865;;2181;Reparation av övriga hushållsartiklar och personliga artiklar;
Blåklintsvägen 10, Dals Rostock;Dals Rostock;0;1850866;;80;Athena Data;companies/show/1850866;;2085;Diverse övrig utbildning;
Box 33, Mellerud;Mellerud;50-99;1850870;;80;Dalslands Sparbank;companies/show/1850870;;1881;Annan monetär finansförmedling;Huvudkontoret
Tussilagovägen 19, Dals Rostock;Dals Rostock;0;1850872;Åkeri;80;A.Larssons Enskilda Musikfirma;companies/show/1850872;;1775;Vägtransport, godstrafik;
Gokroksvägen 8, Åsensbruk;Åsensbruk;0;1850873;;80;Sundelius, Markus Finn;companies/show/1850873;;1107;Skogsförvaltning;
Heden Sjöstugan 3, Dalskog;Dalskog;0;1850875;;80;Svensson, Tage Viktor;companies/show/1850875;;1232;Sågning av trä;
Sävarebol 4, Mellerud;Mellerud;0;1850878;;80;F:a Lilla Sävarebols Lantbruk;companies/show/1850878;;1055;Odling av spannmål (utom ris), baljväxter och oljeväxter;
Norra Kroken 5, Mellerud;Mellerud;1-4;1850879;;80;Hjärtungens Lantbruk AB;companies/show/1850879;;1090;Uppfödning av slaktsvin;
Siribyn 3, Mellerud;Mellerud;0;1850880;;80;Wikmark, Jan Peter;companies/show/1850880;;1055;Odling av spannmål (utom ris), baljväxter och oljeväxter;
Finnetorp Davidsgården 1, Mellerud;Mellerud;0;1850883;;80;Magnusson, Egon Joacim;companies/show/1850883;;1055;Odling av spannmål (utom ris), baljväxter och oljeväxter;
Mölnerud 3, Mellerud;Mellerud;0;1850884;"bilverkstad
bilreparation
bilreparationer
bilservice
";80;Jonas Larsson Entreprenad;companies/show/1850884;;1575;Allmän service och reparation av motorfordon utom motorcyklar;
Bränna Pylserud 1, Åsensbruk;Åsensbruk;0;1850889;;80;Kanyinda, Eva Sara;companies/show/1850889;;1098;Blandat jordbruk;
Ryrsvägen 29, Köpmannebro;Köpmannebro;0;1850890;Åkeri;80;Karlsson, Sven Gunnar;companies/show/1850890;;1775;Vägtransport, godstrafik;
Upperud 34, Åsensbruk;Åsensbruk;0;1850891;;80;Johansson, Per Axel;companies/show/1850891;;1107;Skogsförvaltning;
Sverkersbyn 4, Dals Rostock;Dals Rostock;0;1850892;;80;Bengt Bengtssons Lantbruk;companies/show/1850892;;1055;Odling av spannmål (utom ris), baljväxter och oljeväxter;
Erikstad Bön 9, Mellerud;Mellerud;1-4;1850895;Åkeri;80;Raggens Åkeri AB;companies/show/1850895;;1775;Vägtransport, godstrafik;
Viktoriagatan 3, Mellerud;Mellerud;1-4;1850897;;80;Bostadsrättsföreningen Håverud, 1461;companies/show/1850897;;1922;Förvaltning i bostadsrättsföreningar;
Mellerudsgatan 5, Mellerud;Mellerud;0;1850899;"städning
städbolag
rengöring";80;Nellbro, Lena Kristina;companies/show/1850899;;2009;Lokalvård;
Lövåsvägen 17, Dals Rostock;Dals Rostock;;1850901;;80;Doc AB;companies/show/1850901;;1919;Uthyrning och förvaltning av egna eller arrenderade bostäder;
Bolstad Prästgård 3, Mellerud;Mellerud;0;1850907;;80;Skarin, Sven Lennart Morgan;companies/show/1850907;;1055;Odling av spannmål (utom ris), baljväxter och oljeväxter;
Bronäs 2, Mellerud;Mellerud;0;1850908;;80;Kvalitetstid i Dalsland;companies/show/1850908;;1713;Specialiserad butikshandel med cyklar;
Rud Kroken 1, Mellerud;Mellerud;1-4;1850909;;80;Allbygg David Svensson AB;companies/show/1850909;;1653;Partihandel med VVS-varor;
Gunnarsnäs Berg, Mellerud;Mellerud;0;1850911;;80;Pettersson Olof För Berg 1:2;companies/show/1850911;;2198;;
Ekebro Gård 1, Mellerud;Mellerud;0;1850914;;80;Karlsson, Kent För Ekebro;companies/show/1850914;;1098;Blandat jordbruk;
Bergs Säteri, Mellerud;Mellerud;10-19;1850916;;80;Bergs Säteri Handelsbolag;companies/show/1850916;;1083;Mjölkproduktion och uppfödning av nötkreatur och mjölkras;
Aritsholmen 1, Mellerud;Mellerud;1-4;1850917;;80;Karlsson Bernt-Åke och Karlsson Kenneth;companies/show/1850917;;1098;Blandat jordbruk;
Ör Högen, Mellerud;Mellerud;0;1850918;;80;Pettersson Leif och Per-Arne;companies/show/1850918;;1098;Blandat jordbruk;
Vena 4058, Mellerud;Mellerud;0;1850919;;80;Hvena Kvarn;companies/show/1850919;;1597;Partihandel med spannmål, råtobak, utsäde och djurfoder;
Västergården, Mellerud;Mellerud;0;1850920;"Rörmokare
rörmokeri";80;Hansson Reimert För Västergården;companies/show/1850920;;1548;Värme- och sanitetsarbeten;
Bolstad Berg 1, Mellerud;Mellerud;0;1850921;;80;Bergs Lantbruk HB;companies/show/1850921;;1055;Odling av spannmål (utom ris), baljväxter och oljeväxter;
Brunnsvägen 45 C, Dals Rostock;Dals Rostock;0;1850922;;80;Calluna;companies/show/1850922;;2134;Litterärt och konstnärligt skapande;
Grinstad Hagen Skuterud 1, Mellerud;Mellerud;0;1850923;;80;Karlsson, Lars Ove Bertil;companies/show/1850923;;1084;Uppfödning av andra nötkreatur och bufflar;
Rud Hultet 1, Mellerud;Mellerud;0;1850924;;80;"R&#39;w&#39;s Bildemontering";companies/show/1850924;;1921;Uthyrning och förvaltning av egna eller arrenderade, andra lokaler;
Kambol Stubberud 1, Mellerud;Mellerud;0;1850930;;80;Asp, Per Göran;companies/show/1850930;;1107;Skogsförvaltning;
Korsbols Gård 1, Mellerud;Mellerud;0;1850931;;80;Norenby, Rune Folke;companies/show/1850931;;1055;Odling av spannmål (utom ris), baljväxter och oljeväxter;
Åsnebyn 3, Mellerud;Mellerud;0;1850933;;80;Larsson, Per Hans Kennet;companies/show/1850933;;1084;Uppfödning av andra nötkreatur och bufflar;
Tegen 2, Dalskog;Dalskog;0;1850935;;80;Karl Erik Jansson Skogsmaskiner;companies/show/1850935;;1110;Drivning;
Ör Högen 5, Mellerud;Mellerud;0;1850937;;80;Johansson-Kask, Sten Göran;companies/show/1850937;;1083;Mjölkproduktion och uppfödning av nötkreatur och mjölkras;
Trollungebyn Lilla Skulan 1, Dalskog;Dalskog;0;1850939;;80;Flodin, Tullan Ingegärd Birgitta;companies/show/1850939;;1098;Blandat jordbruk;
Katteberg 6, Mellerud;Mellerud;0;1850941;;80;Carlsson, Helle Pär Arthur;companies/show/1850941;;1242;Tillverkning av övriga byggnads- och inredningssnickerier;
Kårebyn Körsbärskullen 1, Mellerud;Mellerud;0;1850942;;80;Handarbetsboden Lilla Gränd;companies/show/1850942;;1740;Övrig specialiserad butikshandel;
Järn Bön 8, Mellerud;Mellerud;0;1850943;;80;Olsson, Ivar Stig-Uno;companies/show/1850943;;2198;;
Korshamnen 8, Mellerud;Mellerud;0;1850949;"bilverkstad
bilreparation
bilreparationer
bilservice
";80;S Lindström Mek;companies/show/1850949;;1575;Allmän service och reparation av motorfordon utom motorcyklar;
Stora Rud 10, Mellerud;Mellerud;0;1850950;;80;Johansson, Ivan Karl-Erik;companies/show/1850950;;1110;Drivning;
Långgatan 55, Mellerud;Mellerud;0;1850951;;80;Karlsson, Åke Gustav Lennart;companies/show/1850951;;1055;Odling av spannmål (utom ris), baljväxter och oljeväxter;
Nordalsgatan 4, Mellerud;Mellerud;1-4;1850952;;80;Auktionsfirman Leif Landberg o Co HB;companies/show/1850952;;1744;Auktioner i butik;
Bergsgatan 28, Mellerud;Mellerud;1-4;1850954;massage;80;Sun Like AB;companies/show/1850954;;2190;Kroppsvård;
Järns Stom Ängebol 1, Mellerud;Mellerud;0;1850958;;80;Karlsson, Stig Evert;companies/show/1850958;;1055;Odling av spannmål (utom ris), baljväxter och oljeväxter;
Box 73, Mellerud;Mellerud;1-4;1850959;;80;Tilia Redovisning AB;companies/show/1850959;;1933;Redovisning och bokföring;
Bringsrovägen 27, Dals Rostock;Dals Rostock;0;1850961;;80;"Lackar&#39;n På Dal";companies/show/1850961;;1098;Blandat jordbruk;
Kyrkogatan 5, Mellerud;Mellerud;20-49;1850968;;80;Dalsland Miljö- och Energiförbund;companies/show/1850968;;2038;Administration av program för kultur, miljö, boende m.m.;Dalslands Miljö- och Energikontor
Norra Kungsgatan 3, Mellerud;Mellerud;10000-;1850970;;80;Västra Götalandsregionen;companies/show/1850970;;2094;Primärvårdsmottagningar med läkare m.m.;Vårdcentral Mellerud
Norra Myckeläng 1, Mellerud;Mellerud;0;1850980;;80;Gunnarsson, Bror Albert Gunnar;companies/show/1850980;;1083;Mjölkproduktion och uppfödning av nötkreatur och mjölkras;
Kroppefjäll 2, Dals Rostock;Dals Rostock;5-9;1850981;;80;Kropphus AB;companies/show/1850981;;1919;Uthyrning och förvaltning av egna eller arrenderade bostäder;
Liane 1, Dalskog;Dalskog;0;1850982;;80;Lennart Karlsson;companies/show/1850982;;1098;Blandat jordbruk;
Ryr Hagarne 1, Köpmannebro;Köpmannebro;0;1850983;;80;Pantzar Öhman, Eva Brita Margareta;companies/show/1850983;;1107;Skogsförvaltning;
Bräckan 3, Mellerud;Mellerud;0;1850984;;80;Nilsson, Maud Carina;companies/show/1850984;;1098;Blandat jordbruk;
Hällan 5, Dals Rostock;Dals Rostock;0;1850985;;80;Johansson, Mats Göran;companies/show/1850985;;1055;Odling av spannmål (utom ris), baljväxter och oljeväxter;
Erikstad Göbyn Hamnekärr 1, Mellerud;Mellerud;0;1850986;;80;Eriksson, Anna Catarina Ingegärd;companies/show/1850986;;1055;Odling av spannmål (utom ris), baljväxter och oljeväxter;
Skållerud Backen 9, Åsensbruk;Åsensbruk;0;1850987;;80;Bergman, Anders Jonas;companies/show/1850987;;1232;Sågning av trä;
Gullesbyn 1, Mellerud;Mellerud;1-4;1850989;;80;Torstensson, Robert Ingvar Bertil;companies/show/1850989;;1083;Mjölkproduktion och uppfödning av nötkreatur och mjölkras;
Åsmule 7, Mellerud;Mellerud;0;1850990;;80;Andersson, Sture Allan Viktor;companies/show/1850990;;1946;Teknisk konsultverksamhet inom industriteknik;
Erikstad Kärr 1, Mellerud;Mellerud;0;1850991;;80;Stang, Niclas Karl Jonas;companies/show/1850991;;1098;Blandat jordbruk;
Dalbergså 7, Mellerud;Mellerud;0;1850992;;80;Fransson, Hans Bertil;companies/show/1850992;;1826;Campingplatsverksamhet;
Holms Torp 6, Mellerud;Mellerud;0;1850993;"Restaurant
Restaurang
Matställe
Bar";80;Melleruds Pizzeria o Gatukök;companies/show/1850993;;1829;Restaurangverksamhet;
Hantverkargatan 2, Mellerud;Mellerud;;1850994;;80;TZ Fastigheter AB;companies/show/1850994;;1652;Partihandel med järnhandelsvaror;
Rådane 3024, Mellerud;Mellerud;0;1850995;;80;Jte Lantbruk Handelsbolag;companies/show/1850995;;1098;Blandat jordbruk;
Anolfsbyn Adamserud 3, Mellerud;Mellerud;0;1850996;;80;Johansson, Ulf Eje Thomas;companies/show/1850996;;1935;Skatterådgivning;
Gundlebol 1  Ör, Mellerud;Mellerud;0;1850997;;80;"Red House Prod&#39; L Maxwell-Stewart &amp; M Hanke";companies/show/1850997;;2159;Övrig fritids- och nöjesverksamhet;
Kurt Hellbergs gata 4, Mellerud;Mellerud;5-9;1850998;"städning
städbolag
rengöring";80;"Lollo Willners Alltjänst &amp; Service AB";companies/show/1850998;;2009;Lokalvård;
Stränge Gård 1, Mellerud;Mellerud;0;1851000;;80;Ågerup, Anders Hjalmar;companies/show/1851000;;1098;Blandat jordbruk;
Viktoriagatan 3, Mellerud;Mellerud;1-4;1851005;revisor;80;Ulla-Britt Abrahamsson Revision AB;companies/show/1851005;;1934;Revision;
Långgatan 76, Mellerud;Mellerud;1000-1499;1851007;;80;Optimera Svenska AB;companies/show/1851007;;1692;Specialiserad butikshandel med virke och byggvaror;Mellerud
Kuseruds Gård, Mellerud;Mellerud;1-4;1851009;;80;Kuseruds Idrottsprodukter AB;companies/show/1851009;;1801;Magasinering och varulagring;
Landsvägsgatan 64, Mellerud;Mellerud;5-9;1851011;;80;Maskinuthyrning T.L. AB;companies/show/1851011;;1987;Uthyrning och leasing av bygg- och anläggningsmaskiner;
Allégatan 2 Lgh 1001, Mellerud;Mellerud;0;1851014;elektriker;80;Jansson, Urban Vilhelm;companies/show/1851014;;1546;Elinstallationer;
Storgatan 8, Mellerud;Mellerud;;1851018;;80;Systembolaget AB;companies/show/1851018;;1679;Specialiserad butikshandel med alkoholhaltiga och andra drycker;
Sörhagen 1, Mellerud;Mellerud;0;1851019;;80;Rudell, Karl Olof Inge;companies/show/1851019;;1055;Odling av spannmål (utom ris), baljväxter och oljeväxter;
Byggmästargatan 9, Mellerud;Mellerud;10-19;1851020;;80;Boab Hjuldelar AB;companies/show/1851020;;1581;Detaljhandel med reservdelar och tillbehör till motorfordon utom motorcyklar;
Simmerud 3, Mellerud;Mellerud;0;1851021;;80;Sågaiåker;companies/show/1851021;;1108;Skogsskötsel;
Södra Blikserud 3, Mellerud;Mellerud;0;1851022;;80;Sundin, Anders Carl-Gustav;companies/show/1851022;;1055;Odling av spannmål (utom ris), baljväxter och oljeväxter;
Kolungens Gård 1, Mellerud;Mellerud;0;1851024;;80;"Dan Johannessons Jordbruk &amp; Entreprenad";companies/show/1851024;;1055;Odling av spannmål (utom ris), baljväxter och oljeväxter;
Hällebäck Tomtebacken, Mellerud;Mellerud;1-4;1851025;Åkeri;80;S. Mossbergs Åkeri AB;companies/show/1851025;;1775;Vägtransport, godstrafik;
Nordkärr 4, Mellerud;Mellerud;5-9;1851026;;80;Bloms Varuhus AB;companies/show/1851026;;1718;Specialiserad butikshandel med herr-, dam- och barnkläder blandat;
Skållerud Eriksbyn 1, Mellerud;Mellerud;1-4;1851027;;80;Peter Eriksson Gräv AB;companies/show/1851027;;1098;Blandat jordbruk;
Ör Högen 6, Mellerud;Mellerud;0;1851028;;80;Pettersson, Leif Tore Gunnar;companies/show/1851028;;2198;;
Tågabo 1, Mellerud;Mellerud;0;1851029;;80;Mathiasson, Britt Marianne;companies/show/1851029;;2198;;
Simmerud 3, Mellerud;Mellerud;0;1851033;;80;"Hamrane Bak &amp; Kaffestuga";companies/show/1851033;;1677;Specialiserad butikshandel med bröd och konditorivaror;
Bråna 7, Mellerud;Mellerud;1-4;1851035;;80;Sören Johanssons Trapp- och Inredningssnickeri;companies/show/1851035;;1242;Tillverkning av övriga byggnads- och inredningssnickerier;
Skållerud Eriksbyn 27, Mellerud;Mellerud;0;1851039;;80;Berglund, Mats Ove Roland;companies/show/1851039;;1531;Anläggning av vägar och motorvägar;
Galoppgatan 4, Mellerud;Mellerud;0;1851040;;80;T U Energi Producter HB;companies/show/1851040;;2084;Personalutbildning;
Storgatan 35, Mellerud;Mellerud;10-19;1851042;;80;Abf Fyrbodal;companies/show/1851042;;2083;Studieförbundens och frivilligorganisationernas utbildning;
, Göteborg;Mellerud;10000-;1851044;;80;Polismyndigheten;companies/show/1851044;;2054;Polisverksamhet;Polismyndigheten - Östra Fyrbodal -
Skalsbyn 1, Mellerud;Mellerud;0;1851046;;80;DB Teknikmontage;companies/show/1851046;;1098;Blandat jordbruk;
Vena 1, Mellerud;Mellerud;0;1851051;;80;Nilsson, Ulf Jörgen;companies/show/1851051;;1098;Blandat jordbruk;
Gunvarbyn 8, Mellerud;Mellerud;0;1851053;;80;Söderlund, Jan Peter;companies/show/1851053;;1098;Blandat jordbruk;
Södra Rådane 4, Mellerud;Mellerud;0;1851054;;80;Jensen, Carina Vivianne;companies/show/1851054;;1098;Blandat jordbruk;
Hantverkargatan 1, Mellerud;Mellerud;5-9;1851056;"bilhandel
bilhandlare";80;Oscarssons Bilhandel i Mellerud AB;companies/show/1851056;;1570;Handel med personbilar och lätta motorfordon;
Ör Frestersbyn Lund 1, Mellerud;Mellerud;0;1851060;Åkeri;80;Karlsson, Roger Ingemar;companies/show/1851060;;1775;Vägtransport, godstrafik;
Torbjörbyn 1, Mellerud;Mellerud;0;1851062;;80;Malmsköld Teknik;companies/show/1851062;;1921;Uthyrning och förvaltning av egna eller arrenderade, andra lokaler;
Envägen 29, Åsensbruk;Åsensbruk;0;1851064;;80;Bostadsrättsföreningen Enen 1461;companies/show/1851064;;1922;Förvaltning i bostadsrättsföreningar;
Södra Bäckebol Karlslund 1, Dals Rostock;Dals Rostock;0;1851068;;80;Larsson, Bo Rune Christer;companies/show/1851068;;1098;Blandat jordbruk;
Storgatan 37, Mellerud;Mellerud;1-4;1851071;målare;80;"Melleruds Måleri &amp; Service AB";companies/show/1851071;;1558;Måleriarbeten;
Gunnarsnäs Berg 1, Mellerud;Mellerud;0;1851073;;80;Pettersson, Karl Olof;companies/show/1851073;;1098;Blandat jordbruk;
Upperud 2, Åsensbruk;Åsensbruk;10-19;1851078;;80;Dalslands Kanal AB;companies/show/1851078;;1806;Stödtjänster till sjötransport;Slusstationen
Nils Ericsons väg 1, Håverud;Håverud;10-19;1851080;;80;Dalslands Kanal AB;companies/show/1851080;;1538;Vattenbyggnad;Verkstaden
Kanalvägen 4, Håverud;Håverud;10-19;1851081;;80;Dalslands Kanal AB;companies/show/1851081;;1806;Stödtjänster till sjötransport;Slusstationen
Snäcke Kanal 1, Köpmannebro;Köpmannebro;10-19;1851083;;80;Dalslands Kanal AB;companies/show/1851083;;1806;Stödtjänster till sjötransport;Slusstation
Järn Bön 3, Mellerud;Mellerud;0;1851084;;80;Johansson, Kjell-Åke Lennart;companies/show/1851084;;1055;Odling av spannmål (utom ris), baljväxter och oljeväxter;
Slussen 1, Köpmannebro;Köpmannebro;10-19;1851085;;80;Dalslands Kanal AB;companies/show/1851085;;1806;Stödtjänster till sjötransport;Slusstationen
Kambol 5, Mellerud;Mellerud;0;1851087;;80;Kki Trade Company Handelsbolag;companies/show/1851087;;1593;Provisionshandel med livsmedel, drycker och tobak;
Krokfors Kvarn 1, Mellerud;Mellerud;0;1851088;;80;Fredriksson, Jan-Olof Bertil;companies/show/1851088;;1103;Bearbetning av utsäde;
Norra Gunnersbyn 4, Dalskog;Dalskog;0;1851089;;80;"Dalskogs Häst &amp; Hundcenter";companies/show/1851089;;1096;Uppfödning av sällskapsdjur;
Bolstad Bodane 2, Mellerud;Mellerud;0;1851090;;80;Karlsson, Stig Anders Gunnar;companies/show/1851090;;1107;Skogsförvaltning;
Skolgatan 18, Mellerud;Mellerud;1-4;1851091;;80;Lindblom, Karl-Erik;companies/show/1851091;;1920;Uthyrning och förvaltning av egna eller arrenderade industrilokaler;
Grinstad Kleven 1, Mellerud;Mellerud;0;1851093;;80;Eriksson, Arne Reidar;companies/show/1851093;;1083;Mjölkproduktion och uppfödning av nötkreatur och mjölkras;
Södra Gunnersbyn 8, Dalskog;Dalskog;0;1851095;massage;80;"Ingela&#39;s Friskzon";companies/show/1851095;;2190;Kroppsvård;
Ör Frestersbyn 12, Mellerud;Mellerud;0;1851096;;80;Borduninstrument Alban Faust;companies/show/1851096;;1477;Tillverkning av musikinstrument;
Sällsäter 4, Dals Rostock;Dals Rostock;0;1851098;;80;Halvarsson, Harry Sören;companies/show/1851098;;1108;Skogsskötsel;
Erikstad Berg 5, Mellerud;Mellerud;0;1851099;;80;Sandberg, Knut Henrik;companies/show/1851099;;1232;Sågning av trä;
Björkgatan 6  Lgh 1001, Mellerud;Mellerud;0;1851106;;80;Gert-Fixare, Gert Lund;companies/show/1851106;;2014;Skötsel och underhåll av grönytor;
Erikstad Bön 9, Mellerud;Mellerud;0;1851107;massage;80;Karlsson, Susanne Eva Marina;companies/show/1851107;;2190;Kroppsvård;
Rådjursvägen 3, Mellerud;Mellerud;0;1851109;;80;Byggstålskonstruktioner, B.Norgren;companies/show/1851109;;1991;Uthyrning och leasing av övrig utrustning och övriga maskiner och materiella tillgångar;
Teåker Skottekullen 1, Bäckefors;Bäckefors;0;1851111;;80;Söderqvist, Leif Gösta Herbert;companies/show/1851111;;1098;Blandat jordbruk;
Järn Bräckan, Mellerud;Mellerud;;1851119;;80;Melleruds Hyres AB;companies/show/1851119;;1919;Uthyrning och förvaltning av egna eller arrenderade bostäder;
Liljevägen 6, Dals Rostock;Dals Rostock;;1851120;;80;Dalslands Bokföringsbyrå AB;companies/show/1851120;;1933;Redovisning och bokföring;
Svalungebyn 6, Mellerud;Mellerud;0;1851122;;80;Gustavsson, Runo Jan Erik;companies/show/1851122;;1098;Blandat jordbruk;
Håltane Storängen, Mellerud;Mellerud;0;1851126;;80;Mellerud Håtane 1:32;companies/show/1851126;;1921;Uthyrning och förvaltning av egna eller arrenderade, andra lokaler;
Gerdsrud 13, Mellerud;Mellerud;0;1851128;;80;Lidbergs Mark o Grävtjänst;companies/show/1851128;;1567;Övrig specialiserad bygg- och anläggningsverksamhet;
, Mellerud;Mellerud;0;1851131;;80;Bröderna Jansson;companies/show/1851131;;1098;Blandat jordbruk;
Lefors 2, Mellerud;Mellerud;0;1851132;;80;Tomas Sylvesson För Sylveson Vindbruk;companies/show/1851132;;1499;Generering av elektricitet;
Håkonebyn 1, Mellerud;Mellerud;0;1851134;;80;Johansson, Leif Göran;companies/show/1851134;;1107;Skogsförvaltning;
Bergs Säteri 1, Mellerud;Mellerud;0;1851136;;80;Olsson, Eva Margareta;companies/show/1851136;;1107;Skogsförvaltning;
Bräckan 3, Mellerud;Mellerud;0;1851137;;80;Larsson, Lars-Gunnar Ingemar;companies/show/1851137;;1098;Blandat jordbruk;
Rostocksgatan 32, Mellerud;Mellerud;0;1851138;;80;Nordqvist, Rolf Jörgen Hjalmar;companies/show/1851138;;1107;Skogsförvaltning;
Vena Kvarn 1, Mellerud;Mellerud;0;1851139;;80;Gullin, Carl Peter Christian;companies/show/1851139;;2198;;
Västerråda 1, Mellerud;Mellerud;0;1851140;;80;Lundgren, Carl Johan;companies/show/1851140;;1055;Odling av spannmål (utom ris), baljväxter och oljeväxter;
Barrud 2, Mellerud;Mellerud;0;1851144;;80;Berglund, John Patrik;companies/show/1851144;;1068;Odling av övriga ett- och tvååriga växter;
Hjärtungens Gård 1, Mellerud;Mellerud;0;1851146;;80;Per-Olof Hilmér;companies/show/1851146;;1098;Blandat jordbruk;
Karihagen 1, Mellerud;Mellerud;1-4;1851147;;80;Krynes Entreprenad AB;companies/show/1851147;;1543;Mark- och grundarbeten;
Erikstad Mossebol, Mellerud;Mellerud;;1851148;;80;Mossebol Lantbruk AB;companies/show/1851148;;1098;Blandat jordbruk;
Täppan 3, Mellerud;Mellerud;0;1851149;;80;Karlsson, Dan Peder;companies/show/1851149;;1543;Mark- och grundarbeten;
Tågabo 1, Mellerud;Mellerud;0;1851150;;80;Mathiasson, Lars Christer Reimert;companies/show/1851150;;1083;Mjölkproduktion och uppfödning av nötkreatur och mjölkras;
Postgatan 24, Mellerud;Mellerud;1-4;1851155;elektriker;80;Elmontage På Dal AB;companies/show/1851155;;1546;Elinstallationer;
Torpane 1, Mellerud;Mellerud;0;1851157;;80;Karlsson, Karl Tommy;companies/show/1851157;;1120;Sötvattensfiske;
Örs Prästgård 2, Mellerud;Mellerud;0;1851158;;80;Nilsson, Gustaf Tomas Birgersson;companies/show/1851158;;1055;Odling av spannmål (utom ris), baljväxter och oljeväxter;
Funnebo 1, Dalskog;Dalskog;0;1851160;;80;Löfqvist, Anders Jonas;companies/show/1851160;;1107;Skogsförvaltning;
Erikstad Mossebol 1, Mellerud;Mellerud;0;1851161;;80;Larsson, Sven-Olof Axel;companies/show/1851161;;1098;Blandat jordbruk;
Östra vägen 1  BV, Vänersborg;Mellerud;1-4;1851162;;80;"Redovisningsbyrån Nolin &amp; Persson AB";companies/show/1851162;;1933;Redovisning och bokföring;
Högsbyn Lindberget 1, Mellerud;Mellerud;0;1851165;"körskola
körkort";80;Lindberg Security And Safe Driving School;companies/show/1851165;;2079;Trafikskoleverksamhet;
Råskogen 1, Mellerud;Mellerud;0;1851168;;80;Karlsson, Lena Elisabet;companies/show/1851168;;1098;Blandat jordbruk;
Östevatten 10, Mellerud;Mellerud;0;1851169;;80;Pettersson, Börje Åke Göran;companies/show/1851169;;1083;Mjölkproduktion och uppfödning av nötkreatur och mjölkras;
Lefors 2, Mellerud;Mellerud;5-9;1851172;;80;Sylves Lantbruk HB;companies/show/1851172;;1089;Uppfödning av smågrisar;
Järn Frestersbyn 4, Mellerud;Mellerud;0;1851176;;80;Johansson, Sven-Erik Gilbert;companies/show/1851176;;1055;Odling av spannmål (utom ris), baljväxter och oljeväxter;
Södra Kroken 2, Mellerud;Mellerud;0;1851177;;80;Pettersson, Karl Erik Niclas;companies/show/1851177;;1543;Mark- och grundarbeten;
Frejagatan 12, Mellerud;Mellerud;0;1851179;;80;Redovisningsbyrån Lars Nolin;companies/show/1851179;;1933;Redovisning och bokföring;
Mellerudsgatan 10, Mellerud;Mellerud;0;1851181;;80;"Martin Olsson&#39;s Entreprenad";companies/show/1851181;;1991;Uthyrning och leasing av övrig utrustning och övriga maskiner och materiella tillgångar;
Kabbo 5, Dalskog;Dalskog;0;1851182;;80;Melert, Lars Roger;companies/show/1851182;;1098;Blandat jordbruk;
Byggmästargatan 3, Mellerud;Mellerud;10-19;1851183;;80;Bertil Johanssons i Mellerud Byggnads AB;companies/show/1851183;;1528;Byggande av bostadshus och andra byggnader;
Orions gata 1, Mellerud;Mellerud;1-4;1851184;;80;Mabentho AB;companies/show/1851184;;1919;Uthyrning och förvaltning av egna eller arrenderade bostäder;
Box 5, Mellerud;Mellerud;1-4;1851188;fastighetsmäklare,mäklare;80;Melleruds-Mäklarna AB;companies/show/1851188;;1925;Fastighetsförmedling;
Ållerud 3, Mellerud;Mellerud;0;1851190;;80;Eliasson, Åsa Anna Irene;companies/show/1851190;;1098;Blandat jordbruk;
Tonsberg 3, Mellerud;Mellerud;0;1851196;;80;Tonsbergs Såg Handelsbolag;companies/show/1851196;;1232;Sågning av trä;
Framnäs Gård, Mellerud;Mellerud;5-9;1851197;;80;Handelsbolaget Framnäs Gård;companies/show/1851197;;1098;Blandat jordbruk;
Bråbol 1, Mellerud;Mellerud;0;1851200;;80;Alexandersson, Sven Jonas;companies/show/1851200;;1055;Odling av spannmål (utom ris), baljväxter och oljeväxter;
Tegen 16, Dalskog;Dalskog;0;1851201;Åkeri;80;J.Å. Janssons Skogstransport;companies/show/1851201;;1775;Vägtransport, godstrafik;
Järn Låssbyn 5, Mellerud;Mellerud;0;1851202;;80;Olsson, Lars Bertil;companies/show/1851202;;1098;Blandat jordbruk;
Rud 2, Mellerud;Mellerud;0;1851207;;80;Johansson, Lennart;companies/show/1851207;;1644;Partihandel med diverse övriga maskiner och utrustning;
Ingribyn 8, Mellerud;Mellerud;0;1851209;;80;Jonsson, Stig-Olov Göran;companies/show/1851209;;1098;Blandat jordbruk;
Tångebo 1, Dalskog;Dalskog;0;1851210;;80;Andreasson, Mats Per Inge;companies/show/1851210;;1107;Skogsförvaltning;
Sunnanå Hästhagen 1, Mellerud;Mellerud;0;1851211;;80;Gustavsson, Nils Gunnar;companies/show/1851211;;1098;Blandat jordbruk;
Villavägen 8, Dals Rostock;Dals Rostock;0;1851217;;80;Hegge, Bengt Erling Rune;companies/show/1851217;;2198;;
Lilla Rud 1, Mellerud;Mellerud;0;1851223;;80;Qvick, Johan Edvard Lennart;companies/show/1851223;;1055;Odling av spannmål (utom ris), baljväxter och oljeväxter;
Södra Halängen 1, Dalskog;Dalskog;0;1851225;;80;Löf, Bengt Artur Erling;companies/show/1851225;;1098;Blandat jordbruk;
Söbyn 3, Mellerud;Mellerud;0;1851226;;80;Larsson, Bror Verner;companies/show/1851226;;1098;Blandat jordbruk;
Norra Kungsgatan 12, Mellerud;Mellerud;0;1851227;;80;Andersson, John Alvar;companies/show/1851227;;1055;Odling av spannmål (utom ris), baljväxter och oljeväxter;
Repslagargatan 14, Mellerud;Mellerud;0;1851229;;80;Nilsson, Bo Lennart;companies/show/1851229;;1644;Partihandel med diverse övriga maskiner och utrustning;
Byggmästergatan 9, Mellerud;Mellerud;1-4;1851230;;80;Wheel Support Sweden AB;companies/show/1851230;;1920;Uthyrning och förvaltning av egna eller arrenderade industrilokaler;
Norra Kungsgatan 14, Mellerud;Mellerud;1-4;1851231;snickare;80;Aag Industrikonsult AB;companies/show/1851231;;1555;Byggnadssnickeriarbeten;
Brunnsvägen 83, Dals Rostock;Dals Rostock;0;1851233;;80;Ronny Westerlunds Måleri;companies/show/1851233;;2014;Skötsel och underhåll av grönytor;
Box 23, Mellerud;Mellerud;5-9;1851234;;80;Flyttgubbens Åkeri;companies/show/1851234;;1776;Flyttjänster;
Bronäs 5, Mellerud;Mellerud;0;1851236;"akupunktur
sjukgymnastik
fotvård
kiropraktor";80;Svensson, Karin Lisbeth Margareta;companies/show/1851236;;2105;Fysioterapeutisk verksamhet o.d;
Nygården 4, Mellerud;Mellerud;1-4;1851237;;80;Erik och Karl Larssons Jordbruk Handelsbolag;companies/show/1851237;;1083;Mjölkproduktion och uppfödning av nötkreatur och mjölkras;
Strågatan 7, Mellerud;Mellerud;0;1851239;;80;Bostadsrättsföreningen Ängenäs;companies/show/1851239;;1922;Förvaltning i bostadsrättsföreningar;
Östadsvägen 159, Gråbo;Mellerud;0;1851240;;80;Hilmér, Cecilia Mia Susanne;companies/show/1851240;;1921;Uthyrning och förvaltning av egna eller arrenderade, andra lokaler;
Västergården 6, Mellerud;Mellerud;0;1851241;;80;Johansson, Anders Richard;companies/show/1851241;;1098;Blandat jordbruk;
Verkstadsgatan 2, Mellerud;Mellerud;20-49;1851242;;80;Tendenz AB;companies/show/1851242;;1621;Partihandel med parfym och kosmetika;
Box 124, Mellerud;Mellerud;1-4;1851247;;80;Roslinds Optik AB;companies/show/1851247;;1736;Specialiserad butikshandel med glasögon och andra optiska artiklar utom fotoutrustning;
Bolstad Torp 1, Mellerud;Mellerud;0;1851249;;80;Rudell, Kristina Elisabet;companies/show/1851249;;1107;Skogsförvaltning;
Svalungebyn 10, Mellerud;Mellerud;0;1851250;;80;Equidal;companies/show/1851250;;2155;Tävling med hästar;
Bråna Tormansbol 2, Mellerud;Mellerud;0;1851251;;80;Läderverket på Dal;companies/show/1851251;;1228;Tillverkning av reseffekter, handväskor, sadel- och seldon m. m.;
Kräppersrud 3, Mellerud;Mellerud;0;1851252;;80;"Gustafsson Svets&amp;lantbruk";companies/show/1851252;;1055;Odling av spannmål (utom ris), baljväxter och oljeväxter;
Erikstad Skåkerud 5, Mellerud;Mellerud;0;1851253;;80;Erikssons Transmissions Teknik;companies/show/1851253;;1573;Handel med husvagnar, husbilar, släpfordon och påhängsvagnar;
Södergatan 15, Mellerud;Mellerud;;1851254;"bilhandel
bilhandlare";80;Drive Sweden Invest AB;companies/show/1851254;;1570;Handel med personbilar och lätta motorfordon;
Landsvägsgatan 80, Mellerud;Mellerud;1-4;1851255;"bilverkstad
bilreparation
bilreparationer
bilservice
";80;Automats AB;companies/show/1851255;;1575;Allmän service och reparation av motorfordon utom motorcyklar;
Kolungens Gård 1, Mellerud;Mellerud;1-4;1851259;;80;WTG i Väst AB;companies/show/1851259;;1543;Mark- och grundarbeten;
Box 134, Mellerud;Mellerud;5-9;1851261;;80;AB Konsumentkemi;companies/show/1851261;;1291;Tillverkning av tvål, såpa, tvättmedel och polermedel;
Åsebro 19, Mellerud;Mellerud;;1851262;;80;Carozze Design AB;companies/show/1851262;;1966;Industri-/produktdesignverksamhet;
Stenen 1, Mellerud;Mellerud;0;1851264;;80;Rydberg, Tord Axel Egon;companies/show/1851264;;1098;Blandat jordbruk;
Allégatan 2, Mellerud;Mellerud;0;1851269;;80;Fastighetsbolaget Gohl KB;companies/show/1851269;;1920;Uthyrning och förvaltning av egna eller arrenderade industrilokaler;
Gamla vägen, Åsensbruk;Åsensbruk;1-4;1851270;;80;Håfreströms If;companies/show/1851270;;2152;Sportklubbars och idrottsföreningars verksamhet;
Verkstadsgatan 4, Mellerud;Mellerud;;1851271;;80;"Färg &amp; Tapetlagret i Mellerud AB";companies/show/1851271;;1694;Specialiserad butikshandel med färger, fernissor och lacker;
Bråna Juterud 1, Mellerud;Mellerud;0;1851275;;80;Zetterström, Jan Daniel;companies/show/1851275;;1068;Odling av övriga ett- och tvååriga växter;
Kanalvägen 4, Håverud;Håverud;;1851276;;80;Zerak AB;companies/show/1851276;;1609;Partihandel med andra livsmedel, bl.a. fisk, skal- och blötdjur;
Grimmerud 1, Mellerud;Mellerud;0;1851278;"Restaurant
Restaurang
Matställe
Bar";80;Emanuelsson, Elisabette Märta Elvira;companies/show/1851278;;1829;Restaurangverksamhet;
Ör Eriksbyn 5, Mellerud;Mellerud;0;1851279;;80;Davidson, Charles Richard;companies/show/1851279;;1966;Industri-/produktdesignverksamhet;
Ylingebol 1, Mellerud;Mellerud;0;1851281;;80;Larsson, Karl Olov David;companies/show/1851281;;1921;Uthyrning och förvaltning av egna eller arrenderade, andra lokaler;
Rud Kroken 1, Mellerud;Mellerud;1-4;1851283;frisör frisörer frissa hårklippning;80;"Frisyratelje&#39;n Pia";companies/show/1851283;;2187;Hårvård;
Ransbergsvägen 30, Köpmannebro;Köpmannebro;1-4;1851284;;80;Alvesson Education AB;companies/show/1851284;;2086;Stödverksamhet för utbildningsväsendet;
Stafettgatan 3 A Lgh 1201, Mellerud;Mellerud;;1851287;;80;Selenwall Fastighet AB;companies/show/1851287;;1921;Uthyrning och förvaltning av egna eller arrenderade, andra lokaler;
Box 14, Mellerud;Mellerud;5-9;1851289;;80;Vita Sandars Camping AB;companies/show/1851289;;1826;Campingplatsverksamhet;
Norra Kroken 5, Mellerud;Mellerud;0;1851291;;80;Olsson, Olof Lennart;companies/show/1851291;;1107;Skogsförvaltning;
Solgatan 2, Mellerud;Mellerud;0;1851292;frisör frisörer frissa hårklippning;80;Erving Nilsson, Ann-Britt Margareta;companies/show/1851292;;2187;Hårvård;
Rud 1, Mellerud;Mellerud;0;1851293;;80;Martin Janssons Bygg;companies/show/1851293;;1499;Generering av elektricitet;
Töresbyn 3, Mellerud;Mellerud;0;1851297;;80;Töresbyn Konsult;companies/show/1851297;;1107;Skogsförvaltning;
Järn Bäckebol 1, Mellerud;Mellerud;0;1851299;;80;Bäckebols Gård;companies/show/1851299;;1646;Partihandel med bränslen;
Ekebro Gård 1, Mellerud;Mellerud;0;1851300;;80;Karlsson, Kent Sören Ingemar;companies/show/1851300;;2198;;
Skållerud 1, Åsensbruk;Åsensbruk;0;1851302;;80;Snickarebo;companies/show/1851302;;1107;Skogsförvaltning;
Nygårdsåker Berget 1, Mellerud;Mellerud;0;1851304;;80;Andersson, Sven Bertil;companies/show/1851304;;1083;Mjölkproduktion och uppfödning av nötkreatur och mjölkras;
Villagatan 8, Mellerud;Mellerud;0;1851308;;80;Gerdseruds Alltjänst;companies/show/1851308;;1556;Golv- och väggbeläggningsarbeten;
Östra Vässby 1, Mellerud;Mellerud;0;1851310;;80;Bengtzon, Bengt Ruben;companies/show/1851310;;1107;Skogsförvaltning;
Upperud 28, Åsensbruk;Åsensbruk;10-19;1851315;museum;80;Stiftelsen Dalslands Museum och Konsthall;companies/show/1851315;;2140;Museiverksamhet;
Björkgatan 8, Mellerud;Mellerud;0;1851320;;80;Firma M.B.W Christiansson;companies/show/1851320;;1720;Specialiserad butikshandel med damkläder;
Ekholmens Säteri 1, Dals Rostock;Dals Rostock;5-9;1851322;;80;Ekholmen Lantbruk;companies/show/1851322;;1083;Mjölkproduktion och uppfödning av nötkreatur och mjölkras;
Hantverkargatan 2, Mellerud;Mellerud;10000-;1851324;"städning
städbolag
rengöring";80;Samhall AB;companies/show/1851324;;2009;Lokalvård;Mellerud Städ och Bemanning
Örnäs 1, Mellerud;Mellerud;0;1851326;;80;Johansson, Bo Anders;companies/show/1851326;;2198;;
Sapphultsgatan, Mellerud;Mellerud;;1851328;;80;"Fritz Fritzén &amp; Co AB";companies/show/1851328;;1698;Specialiserad butikshandel med elektriska hushållsmaskiner och hushållsapparater;
Box 29, Mellerud;Mellerud;10-19;1851330;Åkeri;80;Hilding Anderssons Åkeri AB;companies/show/1851330;;1775;Vägtransport, godstrafik;
Göbyn 10, Mellerud;Mellerud;0;1851332;;80;Erikstads Trädgårdskonst;companies/show/1851332;;1740;Övrig specialiserad butikshandel;
Ör Åker 5, Mellerud;Mellerud;0;1851333;;80;Söderlund, Kurt Kristian;companies/show/1851333;;1107;Skogsförvaltning;
Södra Bäckebol 24, Dals Rostock;Dals Rostock;0;1851334;snickare;80;Rune Larssons Byggnadsfirma;companies/show/1851334;;1555;Byggnadssnickeriarbeten;
Tonsberg 1, Mellerud;Mellerud;0;1851337;;80;Dalslands El och Maskin Service;companies/show/1851337;;1489;Reparation av maskiner;
Myrvägen 9, Håverud;Håverud;0;1851339;;80;Melleruds Golvtjänst;companies/show/1851339;;1556;Golv- och väggbeläggningsarbeten;
Dansbo 2, Dalskog;Dalskog;0;1851341;Åkeri;80;Emanuelsson, Mats Karl Olov;companies/show/1851341;;1775;Vägtransport, godstrafik;
Dalsjövägen 15, Köpmannebro;Köpmannebro;0;1851342;;80;Saxin Kihlberg, Carina Maria;companies/show/1851342;;1107;Skogsförvaltning;
Ränsliden Gärdet 1, Dalskog;Dalskog;0;1851346;;80;Niklasson, Anna Elisabet;companies/show/1851346;;1107;Skogsförvaltning;
Bråna 1, Mellerud;Mellerud;0;1851352;;80;Wallin, Ingrid Britta Christina;companies/show/1851352;;2198;;
Ransbergsvägen 10, Köpmannebro;Köpmannebro;0;1851353;;80;Automats;companies/show/1851353;;1921;Uthyrning och förvaltning av egna eller arrenderade, andra lokaler;
Gerdsrud 11, Mellerud;Mellerud;0;1851354;;80;Edén, Anders Peder;companies/show/1851354;;1098;Blandat jordbruk;
Fågelbacka 1, Mellerud;Mellerud;0;1851355;;80;Hjelte, Bengt Anders Gösta;companies/show/1851355;;1055;Odling av spannmål (utom ris), baljväxter och oljeväxter;
Anolfsbyn Adamserud 3, Mellerud;Mellerud;0;1851357;;80;Johansson Kjörling, Ebba Katarina M;companies/show/1851357;;2078;Övrig musik-, dans- och kulturell utbildning;
Järn Bön 7, Mellerud;Mellerud;0;1851360;;80;Olsson, Eric Claes Börje;companies/show/1851360;;2198;;
Nygården 7, Mellerud;Mellerud;0;1851362;;80;Larsson, Bror Erik Verner;companies/show/1851362;;1083;Mjölkproduktion och uppfödning av nötkreatur och mjölkras;
Magasinsgatan 13, Mellerud;Mellerud;1500-1999;1851363;;80;Infranord AB;companies/show/1851363;;1532;Anläggning av järnvägar och tunnelbanor;
Rud 1, Mellerud;Mellerud;5-9;1851364;snickare;80;Martin Jansson Bygg AB;companies/show/1851364;;1555;Byggnadssnickeriarbeten;
Lilla Ransberg 1, Köpmannebro;Köpmannebro;0;1851365;;80;Westling, Sven Oskar Leonard;companies/show/1851365;;1107;Skogsförvaltning;
Makeberg 2, Mellerud;Mellerud;0;1851368;;80;Pettersson, Per-Arne Bertil;companies/show/1851368;;1098;Blandat jordbruk;
Äckerud 7, Mellerud;Mellerud;0;1851369;;80;Johansson, Bengt Inge Sigvard;companies/show/1851369;;1055;Odling av spannmål (utom ris), baljväxter och oljeväxter;
Bräckan 5, Mellerud;Mellerud;1-4;1851370;snickare;80;Lundgren, Henry Joacim;companies/show/1851370;;1555;Byggnadssnickeriarbeten;
Storgatan 7 B Lgh 1301, Mellerud;Mellerud;0;1851371;;80;"Eas Betonghåltagning &amp; Rivning , Alltjänst";companies/show/1851371;;1671;Övrig detaljhandel med brett sortiment;
Storgatan 18b, Mellerud;Mellerud;1-4;1851372;frisör frisörer frissa hårklippning;80;Salong Blücher;companies/show/1851372;;2187;Hårvård;
Lapperud 1, Dalskog;Dalskog;0;1851373;"akupunktur
sjukgymnastik
fotvård
kiropraktor";80;Schneider, Valentijn M P E;companies/show/1851373;;2105;Fysioterapeutisk verksamhet o.d;
Eriks väg 4, Dals Rostock;Dals Rostock;0;1851374;;80;Hedlund, Frank Erik Hans;companies/show/1851374;;1101;Service till husdjursskötsel;
Östanå 7, Mellerud;Mellerud;0;1851375;Tryckeri;80;Andersson, Per-Olov Jörgen;companies/show/1851375;;1272;Tryckning av böcker och övriga trycksaker;
Håkonebyn 4260, Mellerud;Mellerud;0;1851377;;80;Jonsson Tage och Jonsson Lilian;companies/show/1851377;;1083;Mjölkproduktion och uppfödning av nötkreatur och mjölkras;
Östevatten Sundet 1, Mellerud;Mellerud;0;1851381;;80;"Björklanders Bil &amp; Marin Service Entreprenad";companies/show/1851381;;1491;Reparation av elapparatur;
Box 29, Mellerud;Mellerud;;1851385;;80;Kjell Anderssons Transport i Mellerud AB;companies/show/1851385;;1980;Uthyrning och leasing av lastbilar och andra tunga motorfordon;
Hålsungebyn Ödegården 1, Mellerud;Mellerud;0;1851386;"Rörmokare
rörmokeri";80;Linds Rör;companies/show/1851386;;1548;Värme- och sanitetsarbeten;
Ryrsvägen 8, Köpmannebro;Köpmannebro;0;1851389;;80;Sundelius, Björn Mauritz;companies/show/1851389;;1658;Partihandel med övriga insatsvaror;
Raglebråna 6, Mellerud;Mellerud;0;1851391;;80;Trappvik, Maria Katarina;companies/show/1851391;;1107;Skogsförvaltning;
Brånasmedsgatan 3, Mellerud;Mellerud;0;1851393;elektriker;80;Da Ljusteknik;companies/show/1851393;;1546;Elinstallationer;
Tävlingsbol 1, Mellerud;Mellerud;0;1851395;;80;Svensson, Sven Roger David;companies/show/1851395;;1945;Teknisk konsultverksamhet inom bygg och anläggningsteknik;
Dalsland Center, Håverud;Håverud;5-9;1851397;;80;"Håveruds Fisk &amp; Vatten AB";companies/show/1851397;;1675;Specialiserad butikshandel med fisk, skal- och blötdjur;
Skållerud Eriksbyn 1, Mellerud;Mellerud;0;1851398;;80;Firma Peter Erikssons Gräv;companies/show/1851398;;1107;Skogsförvaltning;
Kornsjögatan 2, Mellerud;Mellerud;1-4;1851400;Tryckeri;80;Dalsign;companies/show/1851400;;1272;Tryckning av böcker och övriga trycksaker;
Gatan 1, Mellerud;Mellerud;0;1851401;;80;Masterson, John Nicholas;companies/show/1851401;;1098;Blandat jordbruk;
Magnersbyn 2, Mellerud;Mellerud;1-4;1851404;;80;GB Maskinservice i Mellerud AB;companies/show/1851404;;1489;Reparation av maskiner;
Stränge Gård, Mellerud;Mellerud;;1851405;;80;Borekulle AB;companies/show/1851405;;1087;Uppfödning av får och getter;
Ödetorp Luserud 1, Mellerud;Mellerud;1-4;1851406;;80;Erikstads Busstrafik AB;companies/show/1851406;;1773;Annan landtransport av passagerare;
Mellerudsgatan 9, Mellerud;Mellerud;;1851407;;80;Ekonomi-Tjänst Carin Lysell AB;companies/show/1851407;;1933;Redovisning och bokföring;
Tillhagen Nyet, Mellerud;Mellerud;1-4;1851408;;80;Tillhagens Lantbruk AB;companies/show/1851408;;1098;Blandat jordbruk;
Norra Kungsgatan 23 Lgh 1002, Mellerud;Mellerud;0;1851413;;80;Tuten Records;companies/show/1851413;;1731;Specialiserad butikshandel med små sällskapsdjur;
Galoppgatan 1, Mellerud;Mellerud;1-4;1851417;;80;Evm Teknik AB;companies/show/1851417;;1549;Ventilationsarbeten;
Björnebol, Mellerud;Mellerud;;1851418;;80;Erikstad Förvaltnings AB;companies/show/1851418;;1984;Uthyrning och leasing av andra hushållsartiklar och varor för personligt bruk;
Gerdsrud Bronäs 1, Mellerud;Mellerud;0;1851422;;80;Sandberg, Nils Gustaf Olof;companies/show/1851422;;1543;Mark- och grundarbeten;
Ugglom 1, Mellerud;Mellerud;0;1851426;;80;Wandel, Reinhold;companies/show/1851426;;1084;Uppfödning av andra nötkreatur och bufflar;
Falkgatan 22, Mellerud;Mellerud;0;1851428;;80;Jansson, Rolf Erik;companies/show/1851428;;1098;Blandat jordbruk;
Ör Hällan 2, Mellerud;Mellerud;0;1851431;;80;Eriksson, Gustaf Bertil;companies/show/1851431;;1232;Sågning av trä;
Skåkerud Holmerud 1, Mellerud;Mellerud;0;1851433;;80;Martiensen, Stig Johan Martin;companies/show/1851433;;1098;Blandat jordbruk;
Tegen 20, Dalskog;Dalskog;0;1851434;;80;Söderqvist, Folke Martin;companies/show/1851434;;1109;Övrig skoglig verksamhet;
Barrud 1, Mellerud;Mellerud;0;1851435;;80;Janveden, Helena Sara Mariann;companies/show/1851435;;2156;Övrig sportverksamhet;
Siribyn 6, Mellerud;Mellerud;0;1851442;;80;Andersson, Sven Lennart;companies/show/1851442;;1098;Blandat jordbruk;
Kårebyn Körsbärskullen 1, Mellerud;Mellerud;0;1851445;;80;Eriksson, Lars Åke Gunnar;companies/show/1851445;;1055;Odling av spannmål (utom ris), baljväxter och oljeväxter;
Årbol Stenbacken 2, Dalskog;Dalskog;0;1851450;;80;Mikaelas Hovslageri;companies/show/1851450;;1101;Service till husdjursskötsel;
Erikstad Stommen 1, Mellerud;Mellerud;0;1851452;snickare;80;Janveden, Henrik John;companies/show/1851452;;1555;Byggnadssnickeriarbeten;
Ör Backen 5, Mellerud;Mellerud;0;1851454;;80;Hanke, Matthias;companies/show/1851454;;2133;Stödtjänster till artistisk verksamhet;
Backakullen 1, Dals Rostock;Dals Rostock;0;1851455;;80;Oscarsson, Jan Henrik Andreas;companies/show/1851455;;1098;Blandat jordbruk;
Årbol 5 B, Dalskog;Dalskog;0;1851462;;80;"Berglunds Verkstad &amp; Maskin";companies/show/1851462;;1138;Utvinning av sand, grus och berg utvinning av lera och kaolin;
Siribyn 5, Mellerud;Mellerud;0;1851464;;80;Östlind, Tony Mikael;companies/show/1851464;;1528;Byggande av bostadshus och andra byggnader;
Källingerud 1, Mellerud;Mellerud;0;1851467;;80;Andersson, Stig Rune Lennart;companies/show/1851467;;1770;Linjebussverksamhet;
Bolstad Norra Torp 1, Mellerud;Mellerud;0;1851469;;80;Svensson, Jan-Peter Emanuel;companies/show/1851469;;1108;Skogsskötsel;
Qvantenburgs Säteri 1, Mellerud;Mellerud;;1851477;;80;Dalslands Vind AB;companies/show/1851477;;1499;Generering av elektricitet;
Dalsjövägen 15, Köpmannebro;Köpmannebro;;1851478;;80;Eco Venture Dalsland AB;companies/show/1851478;;1919;Uthyrning och förvaltning av egna eller arrenderade bostäder;
Ör Frestersbyn 5, Mellerud;Mellerud;1-4;1851479;;80;Din Snickare På Dal AB;companies/show/1851479;;1543;Mark- och grundarbeten;
Bolstad Berg 2, Mellerud;Mellerud;0;1851482;;80;Johansson, Thomas Klas Göran;companies/show/1851482;;1098;Blandat jordbruk;
Norra Kungsgatan 2, Mellerud;Mellerud;0;1851486;;80;"Fritz Fritzén &amp; Co Handelsbolag";companies/show/1851486;;1921;Uthyrning och förvaltning av egna eller arrenderade, andra lokaler;
Kambol 7, Mellerud;Mellerud;;1851487;;80;Imb Transport AB;companies/show/1851487;;1646;Partihandel med bränslen;
Sapphultsgatan 6-8, Mellerud;Mellerud;50-99;1851488;"bilhandel
bilhandlare";80;Roy Andersson Bilbolaget AB;companies/show/1851488;;1570;Handel med personbilar och lätta motorfordon;
Box 83, Mellerud;Mellerud;50-99;1851489;;80;Emballator Mellerud AB;companies/show/1851489;;1308;Plastförpackningstillverkning;
Nordalsgatan 3, Mellerud;Mellerud;5-9;1851492;;80;"Ute&amp;inne i Mellerud AB";companies/show/1851492;;1693;Specialiserad butikshandel med järn- och VVS-varor;
Storgatan 13, Mellerud;Mellerud;5-9;1851493;;80;"Modehuset Börsen Tjejer &amp; Killar AB";companies/show/1851493;;1720;Specialiserad butikshandel med damkläder;
Källhult Kasen 2, Dalskog;Dalskog;0;1851495;;80;Isaksson, Anders Niclas;companies/show/1851495;;1107;Skogsförvaltning;
Bolstad Berg 1, Mellerud;Mellerud;0;1851497;;80;Johansson, Oskar Lars-Gunnar;companies/show/1851497;;1055;Odling av spannmål (utom ris), baljväxter och oljeväxter;
Ryrsvägen 31, Köpmannebro;Köpmannebro;0;1851498;;80;Aloesatnam;companies/show/1851498;;1756;Postorderhandel och detaljhandel på internet med bosättningsvaror;
Backegatan 10 C, Mellerud;Mellerud;0;1851500;;80;"Haglunds Måleri &amp; Golv";companies/show/1851500;;1556;Golv- och väggbeläggningsarbeten;
Klätten 1, Mellerud;Mellerud;0;1851501;snickare;80;Arvidsson, Karl-Åke;companies/show/1851501;;1555;Byggnadssnickeriarbeten;
Vena Kvarn 1, Mellerud;Mellerud;0;1851504;;80;"HG Keramik &amp; Design";companies/show/1851504;;1499;Generering av elektricitet;
Ållerud 3, Mellerud;Mellerud;0;1851507;;80;Rudell, Hans Lennart;companies/show/1851507;;1098;Blandat jordbruk;
Gerdsrud Karlslund, Mellerud;Mellerud;0;1851508;;80;Team Banan Häst och Ryttarutrustning Handelsbola;companies/show/1851508;;1712;Specialiserad butikshandel med sport- och fritidsartiklar utom cyklar och båtar;
Kurt Hellbergs gata 4, Mellerud;Mellerud;1-4;1851512;revisor;80;Kjörlings Revisionsbyrå AB;companies/show/1851512;;1934;Revision;
Köpmantorget 3, Mellerud;Mellerud;1-4;1851516;;80;"Kjell&#39;s Sport i Mellerud AB";companies/show/1851516;;1712;Specialiserad butikshandel med sport- och fritidsartiklar utom cyklar och båtar;Team Sportia
Ör Åsen 1, Mellerud;Mellerud;0;1851519;;80;Göran Svenssons Entrepenad;companies/show/1851519;;1543;Mark- och grundarbeten;
Rud Bäckängen 1, Mellerud;Mellerud;0;1851521;;80;Janveden, Bengt Göran;companies/show/1851521;;1630;Partihandel med datorer och kringutrustning samt programvara;
Stomgatan 19, Mellerud;Mellerud;0;1851522;revisor;80;Kjörlings Revisionsbyrå;companies/show/1851522;;1934;Revision;
Örsberg 4, Mellerud;Mellerud;0;1851524;;80;Falk, Elin Mona Elisabet;companies/show/1851524;;1209;Tillverkning av mattor;
Hålsungebyn, Mellerud;Mellerud;0;1851525;;80;Kerstins Camping Handelsbolag;companies/show/1851525;;1098;Blandat jordbruk;
Kuserud 1, Mellerud;Mellerud;0;1851526;;80;Däckgubben På Dal;companies/show/1851526;;1581;Detaljhandel med reservdelar och tillbehör till motorfordon utom motorcyklar;
Intakans Gård 1, Mellerud;Mellerud;0;1851527;;80;Svensson, Lars Erik Gunnar;companies/show/1851527;;1107;Skogsförvaltning;
Stigen 1, Mellerud;Mellerud;0;1851529;;80;Pettersson, Karl Stefan;companies/show/1851529;;1098;Blandat jordbruk;
Stora Åmot 1, Mellerud;Mellerud;0;1851530;;80;Johansson, Bengt Gunnar;companies/show/1851530;;1055;Odling av spannmål (utom ris), baljväxter och oljeväxter;
Glyckshult Fagerhögen 1, Håverud;Håverud;0;1851532;;80;Unitopia;companies/show/1851532;;2134;Litterärt och konstnärligt skapande;
Ingevalds Berga 2, Mellerud;Mellerud;0;1851533;;80;"Örs Svets &amp; Lack";companies/show/1851533;;1055;Odling av spannmål (utom ris), baljväxter och oljeväxter;
Sköttevatten 3, Mellerud;Mellerud;0;1851536;;80;Stefans Antik och Konst;companies/show/1851536;;1055;Odling av spannmål (utom ris), baljväxter och oljeväxter;
Bolstad Åker 1, Mellerud;Mellerud;0;1851537;;80;Ericson, Lars Harald;companies/show/1851537;;1055;Odling av spannmål (utom ris), baljväxter och oljeväxter;
Bråna 1, Mellerud;Mellerud;0;1851538;;80;Wallin Bråna Lantbruk;companies/show/1851538;;1055;Odling av spannmål (utom ris), baljväxter och oljeväxter;
Dalslandsgatan 32, Mellerud;Mellerud;0;1851541;;80;Oxlehall 1:6;companies/show/1851541;;1098;Blandat jordbruk;
Tågabo, Mellerud;Mellerud;0;1851542;;80;Mathiasson Marianne För Tågabo;companies/show/1851542;;1098;Blandat jordbruk;
Verkstadsgatan 6, Mellerud;Mellerud;5-9;1851544;;80;Däckarna i Mellerud AB;companies/show/1851544;;1578;Däckservice;
Storgatan 17, Mellerud;Mellerud;1-4;1851545;;80;Mode For You i Mellerud AB;companies/show/1851545;;1720;Specialiserad butikshandel med damkläder;
Båsanevägen 8, Dalskog;Dalskog;1-4;1851547;;80;S-Å Lantz Bygg AB;companies/show/1851547;;1232;Sågning av trä;
Bronäs 5, Mellerud;Mellerud;10-19;1851548;;80;L:e Gruppen AB;companies/show/1851548;;1528;Byggande av bostadshus och andra byggnader;
Göbyn Kullen 1, Mellerud;Mellerud;0;1851550;;80;Olsson, Torsten Robert;companies/show/1851550;;1098;Blandat jordbruk;
Ör Högen 4, Mellerud;Mellerud;0;1851551;;80;Olsson, Anders Magnus;companies/show/1851551;;1055;Odling av spannmål (utom ris), baljväxter och oljeväxter;
Linde 1, Mellerud;Mellerud;1-4;1851552;;80;Karlsson, Anders Göran;companies/show/1851552;;1083;Mjölkproduktion och uppfödning av nötkreatur och mjölkras;
Loberg 250, Brålanda;Mellerud;0;1851553;;80;S.G. Husvagnar;companies/show/1851553;;1573;Handel med husvagnar, husbilar, släpfordon och påhängsvagnar;
Nygården 2, Mellerud;Mellerud;0;1851554;;80;Svenska Hjuldelar;companies/show/1851554;;1644;Partihandel med diverse övriga maskiner och utrustning;
Gunnebyn 5, Mellerud;Mellerud;0;1851555;;80;Fredriksson, Sven Åke;companies/show/1851555;;1098;Blandat jordbruk;
Korngatan 11, Mellerud;Mellerud;0;1851557;fastighetsmäklare,mäklare;80;Stefanssons Fastighetsbyrå;companies/show/1851557;;1925;Fastighetsförmedling;
Kronstrandsbacken 7, Dals Rostock;Dals Rostock;0;1851558;;80;Karlsson, Lars-Åke Roland;companies/show/1851558;;1098;Blandat jordbruk;
Stenen 3, Mellerud;Mellerud;1-4;1851560;;80;Ja Hektors Täckdikning AB;companies/show/1851560;;1543;Mark- och grundarbeten;
Östadsvägen 159, Gråbo;Mellerud;0;1851561;;80;Hilmér, Henrik Gunnar;companies/show/1851561;;1921;Uthyrning och förvaltning av egna eller arrenderade, andra lokaler;
Anolfsbyn Ängarna 3, Mellerud;Mellerud;0;1851568;;80;Johansson Kjörling, Ulf C Christian;companies/show/1851568;;1108;Skogsskötsel;
Svecklingebyn Jonserud 1, Mellerud;Mellerud;0;1851569;;80;Norr, Tor Sebastian;companies/show/1851569;;1055;Odling av spannmål (utom ris), baljväxter och oljeväxter;
Västerråda 2, Mellerud;Mellerud;0;1851571;;80;Lundgren, Hans-Olof;companies/show/1851571;;2155;Tävling med hästar;
Kambol 4, Mellerud;Mellerud;0;1851573;Åkeri;80;Berg, Nils Ingvar;companies/show/1851573;;1775;Vägtransport, godstrafik;
Äckerud Kråkedalen 1, Mellerud;Mellerud;0;1851574;;80;Ingvarsson, Lennart Roland;companies/show/1851574;;1083;Mjölkproduktion och uppfödning av nötkreatur och mjölkras;
Erikstad Bön 6, Mellerud;Mellerud;0;1851576;;80;Norenby, Bengt Arne;companies/show/1851576;;1055;Odling av spannmål (utom ris), baljväxter och oljeväxter;
Norra Myckeläng 3, Mellerud;Mellerud;0;1851579;;80;Qvist, Morgan Lars-Göran;companies/show/1851579;;1098;Blandat jordbruk;
Skållerud Eriksbyn 1, Mellerud;Mellerud;1-4;1851582;;80;Eriksbyns Blomsterverkstad;companies/show/1851582;;1966;Industri-/produktdesignverksamhet;
Borgan 1, Mellerud;Mellerud;0;1851583;;80;Johansson, Nils-Erik Oskar;companies/show/1851583;;1055;Odling av spannmål (utom ris), baljväxter och oljeväxter;
Håltane Gård 1, Mellerud;Mellerud;0;1851584;;80;Geurtsen, Amelie;companies/show/1851584;;1083;Mjölkproduktion och uppfödning av nötkreatur och mjölkras;
Barrud 1, Mellerud;Mellerud;0;1851585;snickare;80;Janveden, Bengt Fredrik;companies/show/1851585;;1555;Byggnadssnickeriarbeten;
Ör Frestersbyn 14, Mellerud;Mellerud;0;1851586;;80;Perme, Lilian Anne-Marie Elizabeth;companies/show/1851586;;2134;Litterärt och konstnärligt skapande;
Södra Rådane 4  Rostad, Mellerud;Mellerud;0;1851589;;80;Dalrostads Småbruk;companies/show/1851589;;1674;Specialiserad butikshandel med kött och charkuterier;
Tillhagen 4, Mellerud;Mellerud;0;1851590;;80;Carlsson, Bengt Olof Kenneth;companies/show/1851590;;1098;Blandat jordbruk;
Ör Hällan 2, Mellerud;Mellerud;0;1851595;;80;Eriksson, Valborg Camilla;companies/show/1851595;;1107;Skogsförvaltning;
Erikstad Berg 2, Mellerud;Mellerud;0;1851596;"bilverkstad
bilreparation
bilreparationer
bilservice
";80;Bysmedjan i Berg;companies/show/1851596;;1575;Allmän service och reparation av motorfordon utom motorcyklar;
Ör Backen 5, Mellerud;Mellerud;0;1851597;;80;Red House Productions;companies/show/1851597;;2133;Stödtjänster till artistisk verksamhet;
Bringsrovägen 14, Dals Rostock;Dals Rostock;1-4;1851598;;80;"AB Finn Högbergs Gräv &amp; Schakt";companies/show/1851598;;1543;Mark- och grundarbeten;
Odengatan 40, Mellerud;Mellerud;;1851599;;80;Aff Fastighetsbolag AB;companies/show/1851599;;1920;Uthyrning och förvaltning av egna eller arrenderade industrilokaler;
Kärragatan 16, Mellerud;Mellerud;;1851600;;80;"R. Berglunds Transport Grus &amp; Maskin AB";companies/show/1851600;;1138;Utvinning av sand, grus och berg utvinning av lera och kaolin;
Famshed 2, Dalskog;Dalskog;5-9;1851601;;80;Kjellins Entreprenad AB;companies/show/1851601;;1107;Skogsförvaltning;
Karolinervägen 41, Dals Rostock;Dals Rostock;0;1851602;;80;Anderberg Stålmontage;companies/show/1851602;;1378;Metallegoarbeten;
Galoppgatan 1, Mellerud;Mellerud;0;1851603;;80;L-Konsult Handelsbolag;companies/show/1851603;;1945;Teknisk konsultverksamhet inom bygg och anläggningsteknik;
Södra Östanå 1, Mellerud;Mellerud;0;1851605;;80;B o R Handelsbolag;companies/show/1851605;;1919;Uthyrning och förvaltning av egna eller arrenderade bostäder;
Järn Bön, Mellerud;Mellerud;0;1851609;;80;Handelsbolaget Skogsnalle;companies/show/1851609;;1114;Övrig service till skogsbruk;
Björkåsen Sjötorp 2, Mellerud;Mellerud;5-9;1851615;snickare;80;Melleruds Dals Bygg Handelsbolag;companies/show/1851615;;1555;Byggnadssnickeriarbeten;
Södra Kroken 2, Mellerud;Mellerud;0;1851616;;80;Lisbeth o Niclas Petterssons Handelsbolag;companies/show/1851616;;1098;Blandat jordbruk;
Stallgatan 7, Mellerud;Mellerud;0;1851617;;80;Laki Skriverier Handelsbolag;companies/show/1851617;;2134;Litterärt och konstnärligt skapande;
Holländarvägen 6, Åsensbruk;Åsensbruk;0;1851618;;80;Larsson, Roy Gunnar;companies/show/1851618;;1996;Övrigt tillhandahållande av personalfunktioner;
Torpgatan 33, Mellerud;Mellerud;0;1851619;;80;Hultman Gullungebyn Allservice;companies/show/1851619;;1108;Skogsskötsel;
Storgatan 89, Mellerud;Mellerud;0;1851624;"akupunktur
sjukgymnastik
fotvård
kiropraktor";80;De Medica Naturae;companies/show/1851624;;2105;Fysioterapeutisk verksamhet o.d;
Karolinervägen 58, Dals Rostock;Dals Rostock;0;1851631;;80;CB Atm Consultant;companies/show/1851631;;1940;Konsultverksamhet avseende företags organisation;
Skurvåsvägen 32, Dalskog;Dalskog;0;1851632;;80;Cojo Byggsupport;companies/show/1851632;;1945;Teknisk konsultverksamhet inom bygg och anläggningsteknik;
Kaprifolgatan 28, Västra Frölunda;Åsensbruk;0;1851633;;80;Haglund, Björn Erik Reinhold;companies/show/1851633;;1098;Blandat jordbruk;
Skållerud 1, Åsensbruk;Åsensbruk;0;1851635;;80;"Tyg &amp; Hantverksboden i Mld";companies/show/1851635;;1690;Specialiserad butikshandel med textilier;
Östra Järn Vallarna 1, Mellerud;Mellerud;0;1851641;;80;Larsson, Rolf Torsten Arne;companies/show/1851641;;1055;Odling av spannmål (utom ris), baljväxter och oljeväxter;
Höga Gård 1, Mellerud;Mellerud;0;1851643;;80;Johnsson, Berthel Anders Paul;companies/show/1851643;;2198;;
Råskog 3, Mellerud;Mellerud;0;1851649;;80;Carlsson, Carl Wilhelm Teofil;companies/show/1851649;;1098;Blandat jordbruk;
Kyrklidsvägen 14, Åsensbruk;Åsensbruk;5-9;1851655;;80;Stubben Hvb AB;companies/show/1851655;;2117;Heldygnsvård med boende för barn och ungdomar med sociala problem;
Upperudsvägen 6, Håverud;Håverud;0;1851656;"Restaurant
Restaurang
Matställe
Bar";80;Herrgården Håverud AB;companies/show/1851656;;1829;Restaurangverksamhet;
Näckrosgatan 6, Mellerud;Mellerud;1-4;1851657;elektriker;80;Mindmill AB;companies/show/1851657;;1546;Elinstallationer;
Ör Bön 2, Mellerud;Mellerud;0;1851663;;80;Eriksson, Per Erik;companies/show/1851663;;1107;Skogsförvaltning;
Landsvägsgatan 10, Mellerud;Mellerud;0;1851664;;80;Gerdén, Frank Anders;companies/show/1851664;;1055;Odling av spannmål (utom ris), baljväxter och oljeväxter;
Karolinervägen 11, Dals Rostock;Dals Rostock;0;1851666;;80;Pensionat Granliden Produktion;companies/show/1851666;;1919;Uthyrning och förvaltning av egna eller arrenderade bostäder;
Grinstad Södra Hagen 6, Mellerud;Mellerud;1-4;1851667;;80;Pettersson Spetz, Anders Robert;companies/show/1851667;;1055;Odling av spannmål (utom ris), baljväxter och oljeväxter;
Örsberg Smekerud 1, Mellerud;Mellerud;0;1851668;;80;Eklund Produktion;companies/show/1851668;;1068;Odling av övriga ett- och tvååriga växter;
Vitsippsvägen 5, Dals Rostock;Dals Rostock;0;1851669;"bilverkstad
bilreparation
bilreparationer
bilservice
";80;Letstech;companies/show/1851669;;1575;Allmän service och reparation av motorfordon utom motorcyklar;
Järn Korsgården 1, Mellerud;Mellerud;0;1851670;;80;"PS Service &amp; Montage";companies/show/1851670;;1489;Reparation av maskiner;
Wibergsgatan 1, Mellerud;Mellerud;1-4;1851671;;80;Oljan i Mellerud AB;companies/show/1851671;;1581;Detaljhandel med reservdelar och tillbehör till motorfordon utom motorcyklar;
Sjögatan 5, Mellerud;Mellerud;0;1851672;;80;Nilsson, Helge Ingemar;companies/show/1851672;;1098;Blandat jordbruk;
Ållerud 3, Mellerud;Mellerud;0;1851678;;80;"Åsa Eliasson &amp; Hans Rudell";companies/show/1851678;;1090;Uppfödning av slaktsvin;
Bergs Säteri 1, Mellerud;Mellerud;0;1851682;;80;Torstensson, Carl Torsten Ingemar;companies/show/1851682;;1107;Skogsförvaltning;
Aspgatan 7, Mellerud;Mellerud;0;1851684;;80;Kräppersruds Entreprenad;companies/show/1851684;;1543;Mark- och grundarbeten;
Glättvägen 6, Åsensbruk;Åsensbruk;0;1851685;;80;Bör Dan Kommanditbolag;companies/show/1851685;;1578;Däckservice;
Hantverkargatan 1, Mellerud;Mellerud;;1851687;"bilhandel
bilhandlare";80;Kickback Sweden AB;companies/show/1851687;;1570;Handel med personbilar och lätta motorfordon;
Bolstad Bodane 3, Mellerud;Mellerud;0;1851689;;80;Rosti, Tommy Jan Roger;companies/show/1851689;;1055;Odling av spannmål (utom ris), baljväxter och oljeväxter;
Bolstad Torp Bränningen 1, Mellerud;Mellerud;0;1851691;;80;Manvik Andresen, Glenn;companies/show/1851691;;1567;Övrig specialiserad bygg- och anläggningsverksamhet;
Gunnarsnäs Berg 2, Mellerud;Mellerud;0;1851694;;80;Gustavsson Stable;companies/show/1851694;;1068;Odling av övriga ett- och tvååriga växter;
Bergsgatan 1, Mellerud;Mellerud;1-4;1851695;;80;Smyrnaförsamlingen;companies/show/1851695;;2168;Verksamhet i religiösa samfund;
Åsebro Rudevi, Mellerud;Mellerud;1-4;1851696;;80;Åsebro Idrottsförening;companies/show/1851696;;2152;Sportklubbars och idrottsföreningars verksamhet;
Storgatan 10, Mellerud;Mellerud;1-4;1851698;;80;Dalslands Fotbollsförbund;companies/show/1851698;;2156;Övrig sportverksamhet;
Änggatan 2, Mellerud;Mellerud;1-4;1851699;;80;Melleruds Idrottsförening;companies/show/1851699;;2152;Sportklubbars och idrottsföreningars verksamhet;
Ok-Stugan, Dals Rostock;Dals Rostock;1-4;1851700;;80;Orienteringsklubben Kroppefjäll;companies/show/1851700;;2152;Sportklubbars och idrottsföreningars verksamhet;
Museivägen 3, Håverud;Håverud;1-4;1851701;;80;Skålleruds Fornminnes och Hembygdsförening;companies/show/1851701;;2170;Verksamhet i andra intresseorganisationer;
Syrénvägen 21, Dals Rostock;Mellerud;0;1851702;frisör frisörer frissa hårklippning;80;3c i Mellerud;companies/show/1851702;;2187;Hårvård;
Tingshusgatan 1, Mellerud;Mellerud;1-4;1851706;;80;Mellerud-Holm-Järns Hembygdsförening;companies/show/1851706;;2170;Verksamhet i andra intresseorganisationer;
Rearsbyn, Mellerud;Mellerud;5-9;1851707;;80;Melleruds Ridklubb;companies/show/1851707;;2152;Sportklubbars och idrottsföreningars verksamhet;
Gunvarbyn 8, Mellerud;Mellerud;0;1851710;;80;H - D Produktion;companies/show/1851710;;2133;Stödtjänster till artistisk verksamhet;
Järn Bön, Mellerud;Mellerud;0;1851711;;80;Claes Börje Olsson För Bröderna Olsson;companies/show/1851711;;1098;Blandat jordbruk;
Järn Bråna, Mellerud;Mellerud;1-4;1851712;;80;Christina o Conny Wallin;companies/show/1851712;;1098;Blandat jordbruk;
Ekholmen 10, Mellerud;Mellerud;10-19;1851713;;80;DGT Bygg AB;companies/show/1851713;;1945;Teknisk konsultverksamhet inom bygg och anläggningsteknik;
Håltane Gård 1, Mellerud;Mellerud;1-4;1851716;;80;Geurtsen, Hermannus;companies/show/1851716;;1083;Mjölkproduktion och uppfödning av nötkreatur och mjölkras;
Bolstad Bodane 2, Mellerud;Mellerud;1-4;1851718;;80;Bodane Lantbruk AB;companies/show/1851718;;1083;Mjölkproduktion och uppfödning av nötkreatur och mjölkras;
Åsebro Kvarn, Mellerud;Mellerud;1-4;1851720;;80;Foderspecialisten Tomas Nilsson;companies/show/1851720;;1189;Framställning av beredda fodermedel;
Bäckeforsvägen 2, Dalskog;Dalskog;2000-2999;1851721;;80;Vattenfall Services Nordic AB;companies/show/1851721;;1536;Anläggningsarbeten för el och telekommunikation;Dalskog
Örnäs Kullen 1, Mellerud;Mellerud;0;1851724;;80;Jansson, Ivan Tommy;companies/show/1851724;;1055;Odling av spannmål (utom ris), baljväxter och oljeväxter;
Norra Hagen 2, Mellerud;Mellerud;0;1851725;;80;Mikael Bergs Lantbrukstjänst;companies/show/1851725;;1100;Service till växtodling;
Stallgatan 4, Mellerud;Mellerud;1-4;1851726;"bilhandel
bilhandlare";80;"AS Car&#39;s AB";companies/show/1851726;;1570;Handel med personbilar och lätta motorfordon;
Bäcken 1, Håverud;Håverud;0;1851729;;80;Håveruds Vandrarhem;companies/show/1851729;;1824;Vandrarhemsverksamhet;
Åsebro 20, Mellerud;Mellerud;0;1851733;;80;Karlsson, Axel Gunnar;companies/show/1851733;;1098;Blandat jordbruk;
Österrådagatan 6, Mellerud;Mellerud;0;1851734;;80;Ekorrboden;companies/show/1851734;;1764;Övrig detaljhandel ej i butik;
Aritsholmen 1, Mellerud;Mellerud;0;1851736;;80;Carlsson, Bernt Åke Ingemar;companies/show/1851736;;1098;Blandat jordbruk;
Svanefjordsvägen 10 A, Köpmannebro;Köpmannebro;0;1851737;;80;Soundbusiness Hgb;companies/show/1851737;;1857;Ljudinspelning och fonogramutgivning;
Allégatan 2, Mellerud;Mellerud;1-4;1851738;;80;Uwj Portmontage AB;companies/show/1851738;;1369;Tillverkning av dörrar och fönster av metall;
Vibergsön 7 A, Köpmannebro;Köpmannebro;0;1851740;;80;Baeal-Konsult;companies/show/1851740;;1107;Skogsförvaltning;
Östanå 1, Mellerud;Mellerud;0;1851742;;80;Andersson, Inga Margareta;companies/show/1851742;;1084;Uppfödning av andra nötkreatur och bufflar;
Norra Rådane 7, Mellerud;Mellerud;0;1851743;;80;Svensson, Hasse Tommy Ingemar;companies/show/1851743;;1107;Skogsförvaltning;
Svankila Herrebråten 1, Köpmannebro;Köpmannebro;0;1851744;;80;Johansson, Per Axel Vincent;companies/show/1851744;;1098;Blandat jordbruk;
Repslagargatan 14, Mellerud;Mellerud;0;1851745;;80;BN Elteknik;companies/show/1851745;;1098;Blandat jordbruk;
Västergården 8, Mellerud;Mellerud;0;1878642;;80;Hans Ragnar AB;companies/show/1878642;;2191;Övriga konsumenttjänster;
Bäckens Gård 1, Mellerud;Mellerud;;1940234;;80;Biogas Brålanda AB;companies/show/1940234;;1504;Framställning av gas;
Håltane Gård, Mellerud;Mellerud;;2115423;;80;Håltane Gård AB;companies/show/2115423;;1098;Blandat jordbruk;
Torsgatan 24, Mellerud;Mellerud;0;2115438;;80;Berglöv Hermansson, Lisbet Camilla;companies/show/2115438;;2132;Artistisk verksamhet;
Liane 1, Dalskog;Dalskog;5-9;2115443;;80;Lianegruppen AB;companies/show/2115443;;1110;Drivning;
Gatan 5, Mellerud;Mellerud;0;2115444;;80;Hammar, Carl Gustav Robin;companies/show/2115444;;1567;Övrig specialiserad bygg- och anläggningsverksamhet;
Frihamnen 16 B, Göteborg;Åsensbruk;10-19;2148377;;80;Tyre Recycling In Sweden AB;companies/show/2148377;;1283;Tillverkning av andra oorganiska baskemikalier;
Stora Rud 8, Mellerud;Mellerud;0;2159622;;80;Rhg.Entreprenad;companies/show/2159622;;1543;Mark- och grundarbeten;
Ör Åker 1, Mellerud;Mellerud;;2159625;;80;Wrisman Per Gruppen AB;companies/show/2159625;;1694;Specialiserad butikshandel med färger, fernissor och lacker;
Svalungebyn 10, Mellerud;Mellerud;0;2159628;;80;Karlsson, John Kennet Örjan;companies/show/2159628;;2155;Tävling med hästar;
Ör Högen 4, Mellerud;Mellerud;0;2159629;"akupunktur
sjukgymnastik
fotvård
kiropraktor";80;Marias Livsport;companies/show/2159629;;2105;Fysioterapeutisk verksamhet o.d;
Gundlebol 2, Mellerud;Mellerud;0;2159632;;80;Carlsson, Eva Kerstin Birgitta;companies/show/2159632;;1098;Blandat jordbruk;
Sjögatan 10, Mellerud;Mellerud;0;2159634;;80;Teknikkonsult Jonny Blom;companies/show/2159634;;1966;Industri-/produktdesignverksamhet;
Källstorp 2, Mellerud;Mellerud;0;2159639;;80;Larsson, Morgan Jan-Erik;companies/show/2159639;;1098;Blandat jordbruk;
Ryrsvägen 38, Köpmannebro;Köpmannebro;;2159643;;80;Helena Rung Invest AB;companies/show/2159643;;1894;Förvaltning av och handel med värdepapper, för en begränsad och sluten krets av ägare;
Gunnersbyvägen 24, Dalskog;Dalskog;0;2159655;;80;Dalskogs Produkter Björn Conny Johansson KB;companies/show/2159655;;1609;Partihandel med andra livsmedel, bl.a. fisk, skal- och blötdjur;
Vibergsön 29, Köpmannebro;Köpmannebro;0;2159656;;80;Å.C Consulting Handelsbolag;companies/show/2159656;;1935;Skatterådgivning;
Täppan 1, Mellerud;Mellerud;0;2159658;;80;Heni Konsult;companies/show/2159658;;1921;Uthyrning och förvaltning av egna eller arrenderade, andra lokaler;
Rörnäsudden 2, Dalskog;Dalskog;0;2159660;;80;"First Take Music &amp; Studios";companies/show/2159660;;2132;Artistisk verksamhet;
Sävarebol 1, Mellerud;Mellerud;0;2159661;;80;Svensson, Mats Håkan;companies/show/2159661;;1098;Blandat jordbruk;
Kabbo 5, Dalskog;Dalskog;0;2159665;;80;Melert, Karin Marianne Elinor;companies/show/2159665;;1107;Skogsförvaltning;
Kanalvägen 9, Håverud;Håverud;20-49;2159669;;80;Nordic Trout Sweden AB;companies/show/2159669;;1123;Fiskodling i sötvatten;Håverud
Byggmästargatan 5, Mellerud;Mellerud;;2159671;;80;Johansson Bygg i Mellerud AB;companies/show/2159671;;1884;Holdingverksamhet i icke-finansiella koncerner;
Industrigatan 8, Mellerud;Mellerud;;2194301;;80;Gåsen 2 i Mellerud AB;companies/show/2194301;;1920;Uthyrning och förvaltning av egna eller arrenderade industrilokaler;
Famsbol 3, Mellerud;Mellerud;1-4;2194309;;80;Pegus Maskin AB;companies/show/2194309;;2084;Personalutbildning;
Täppan 5, Mellerud;Mellerud;0;2235689;elektriker;80;Jockes Alltjänst i Mellerud;companies/show/2235689;;1546;Elinstallationer;
Gamla vägen 35, Åsensbruk;Åsensbruk;0;2235691;"Rörmokare
rörmokeri";80;Mikael Rongemo Snickeri;companies/show/2235691;;1548;Värme- och sanitetsarbeten;
Ed 6, Mellerud;Mellerud;0;2235695;;80;Andersson, Sture Allan Bonny;companies/show/2235695;;1055;Odling av spannmål (utom ris), baljväxter och oljeväxter;
Järn Korsgården 1, Mellerud;Mellerud;0;2235703;;80;Helena och Peter Sundström;companies/show/2235703;;1055;Odling av spannmål (utom ris), baljväxter och oljeväxter;
Björnebol 41, Mellerud;Mellerud;0;2235711;;80;Landegren, Karl Gustaf Gunnar;companies/show/2235711;;1107;Skogsförvaltning;
Ekarebol Gård 1, Mellerud;Mellerud;0;2249713;;80;Karlander, Anders Henry Johannes;companies/show/2249713;;1098;Blandat jordbruk;
Björkåsen 5, Mellerud;Mellerud;0;2249730;;80;Andersson, Kjell Arne;companies/show/2249730;;1098;Blandat jordbruk;
Bleken 1, Dalskog;Dalskog;0;2709994;;80;Nilsson, Bengt Åke;companies/show/2709994;;1068;Odling av övriga ett- och tvååriga växter;
Västra Vässby 3, Mellerud;Mellerud;1-4;2709997;Åkeri;80;Vässby Transport AB;companies/show/2709997;;1775;Vägtransport, godstrafik;
Lapperud 1, Dalskog;Dalskog;1-4;2710001;"akupunktur
sjukgymnastik
fotvård
kiropraktor";80;Fysiofokus Mellerud AB;companies/show/2710001;;2105;Fysioterapeutisk verksamhet o.d;
Gillesbyn 1, Mellerud;Mellerud;0;2710009;;80;Erving, Sven Erik Patrik;companies/show/2710009;;1098;Blandat jordbruk;
Sandviken 7, Dals Rostock;Dals Rostock;0;2710013;;80;Gergils Almqvist, Lena Gundy;companies/show/2710013;;1762;Ambulerande och tillfällig handel med övriga varor;
Karlavagnsgatan 2, Mellerud;Mellerud;0;2710018;;80;Carlsson, Erik Ingvar André;companies/show/2710018;;1098;Blandat jordbruk;
Bäckens Gård 1, Mellerud;Mellerud;;2710019;;80;Grinstad Gårdsgas AB;companies/show/2710019;;1504;Framställning av gas;
Gillesbyns Gård 1, Mellerud;Mellerud;0;2710024;;80;Erving, Hans Robert;companies/show/2710024;;1100;Service till växtodling;
Grinstad Bäcken 8, Mellerud;Mellerud;0;2710031;;80;Hilmér, Karin;companies/show/2710031;;1098;Blandat jordbruk;
Landsvägsgatan 49, Mellerud;Mellerud;1-4;2710033;;80;Melleruds Redovisningsbyrå AB;companies/show/2710033;;1933;Redovisning och bokföring;
Svankila Svanängen 1, Köpmannebro;Köpmannebro;1-4;2710038;"Restaurant
Restaurang
Matställe
Bar";80;Country Living Dalsland AB;companies/show/2710038;;1829;Restaurangverksamhet;
Högelund Kullen, Dals Långed;Håverud;0;2710039;;80;"Patrik Stridh&#39;s Antik &amp; Kuriosa";companies/show/2710039;;1742;Specialiserad butikshandel med antikviteter och begagnade böcker;
Eldaregatan 10, Mellerud;Mellerud;5-9;2710043;Åkeri;80;Kents Åkeri i Berg AB;companies/show/2710043;;1775;Vägtransport, godstrafik;
Tonsberg 3, Mellerud;Mellerud;0;2710049;;80;Andersson, Kaj Erik Gudmund;companies/show/2710049;;1946;Teknisk konsultverksamhet inom industriteknik;
Box 94, Mellerud;Mellerud;20-49;2710058;;80;Melleruds Pastorat;companies/show/2710058;;2168;Verksamhet i religiösa samfund;
Tjärkil 11, Köpmannebro;Köpmannebro;;2719474;;80;Trestads Stenhuggeri AB;companies/show/2719474;;1340;Huggning, formning och slutlig bearbetning av sten för prydnadsändamål;
Gillesbyn 1, Mellerud;Mellerud;0;2739427;;80;"Erving Robert &amp; Patrik";companies/show/2739427;;1098;Blandat jordbruk;
Grinstad Norra Hagen 4, Mellerud;Mellerud;0;2739428;;80;Hjalmarsson, Rut Inger Marian;companies/show/2739428;;1098;Blandat jordbruk;
Västergården 6, Mellerud;Mellerud;10-19;2739436;;80;Västergården Grunsbo AB;companies/show/2739436;;1098;Blandat jordbruk;
Låttsbyn 1, Dals Rostock;Dals Rostock;0;2739439;;80;Gustafsson, Elin Gun-Britt;companies/show/2739439;;2078;Övrig musik-, dans- och kulturell utbildning;
Bronäs 5, Mellerud;Mellerud;0;2739440;;80;Svensson, Leif Anders Torbjörn;companies/show/2739440;;1098;Blandat jordbruk;
Hålsungebyn 1, Mellerud;Mellerud;;2739446;;80;Af Turism AB;companies/show/2739446;;1826;Campingplatsverksamhet;
Häljerud 1, Mellerud;Mellerud;0;2744844;;80;Lorentzon, Johan Ingemar;companies/show/2744844;;1055;Odling av spannmål (utom ris), baljväxter och oljeväxter;
Svankila Svanängen 1, Köpmannebro;Köpmannebro;0;2807832;;80;Monie Naraine, Marie Christina;companies/show/2807832;;1107;Skogsförvaltning;
Västergården 6, Mellerud;Mellerud;;2807837;;80;Årberg Djur AB;companies/show/2807837;;1098;Blandat jordbruk;
Lefors 2, Mellerud;Mellerud;0;2807838;;80;Sylveson, Anders Thomas;companies/show/2807838;;1089;Uppfödning av smågrisar;
Erikstad Stommen 1, Mellerud;Mellerud;0;2825341;;80;Janveden, Susanne Katrin;companies/show/2825341;;1098;Blandat jordbruk;
Rosenvägen 4, Dals Rostock;Dals Rostock;0;2825356;;80;Ingemar Fredrikssons Mekaniska;companies/show/2825356;;1489;Reparation av maskiner;
Landsvägsgatan 46, Mellerud;Mellerud;1-4;2846074;fastighetsmäklare,mäklare;80;Spakebol AB;companies/show/2846074;;1925;Fastighetsförmedling;Mellerud
Bringsrovägen 53, Dals Rostock;Dals Rostock;;2846075;;80;Vovoid Media Technologies AB;companies/show/2846075;;1873;Databehandling, hosting o.d.;
Gatan 12, Mellerud;Mellerud;0;2846084;;80;Larsson, Sören Björn Henrik;companies/show/2846084;;1543;Mark- och grundarbeten;
Örs Prästgård Gölen 1, Mellerud;Mellerud;0;2891288;;80;Wressel, Jimmy Erik Göran;companies/show/2891288;;1920;Uthyrning och förvaltning av egna eller arrenderade industrilokaler;
Dalsjövägen 33, Köpmannebro;Köpmannebro;0;2891291;;80;Schubert Lindström, Susanne;companies/show/2891291;;2085;Diverse övrig utbildning;
Örnäs 2, Mellerud;Mellerud;1-4;2891301;snickare;80;Takfönster Väst AB;companies/show/2891301;;1555;Byggnadssnickeriarbeten;
Kärragatan 23 B Lgh 1201, Mellerud;Mellerud;0;2909390;"Restaurant
Restaurang
Matställe
Bar";80;Qasim, Omar Bapir;companies/show/2909390;;1829;Restaurangverksamhet;
Bronäs 3, Mellerud;Mellerud;0;2912445;;80;Johansson, Karin Ingegärd;companies/show/2912445;;1098;Blandat jordbruk;
Stora Hästön 3, Köpmannebro;Köpmannebro;0;3003694;;80;Jansson, Nils Jacob;companies/show/3003694;;1107;Skogsförvaltning;
Ed 9, Mellerud;Mellerud;0;3003712;;80;Johansson, Knut Inge Ronny;companies/show/3003712;;1098;Blandat jordbruk;
Hede Hagen 2, Mellerud;Mellerud;;3098330;;80;Nodins Synergieffekt AB;companies/show/3098330;;1946;Teknisk konsultverksamhet inom industriteknik;
Norra Kungsgatan 9  0tr, Mellerud;Mellerud;10-19;3098333;;80;Melleruds Kristna Center;companies/show/3098333;;1743;Specialiserad butikshandel med övriga begagnade varor;Andrahandsbutiken 7:an
Brunnsvägen 122, Dals Rostock;Dals Rostock;0;3098337;;80;Sandlycke Gård;companies/show/3098337;;1098;Blandat jordbruk;
Hede Hagen 2, Mellerud;Mellerud;;3193278;;80;Nodins Keps AB;companies/show/3193278;;1919;Uthyrning och förvaltning av egna eller arrenderade bostäder;
Stafettgatan 1-6, Mellerud;Mellerud;0;3193282;;80;Bostadsrättsföreningen Bollen 1461;companies/show/3193282;;1922;Förvaltning i bostadsrättsföreningar;
Tillhagen Nyet 1, Mellerud;Mellerud;0;3193285;;80;Andersson, Sven Börje Evert;companies/show/3193285;;1098;Blandat jordbruk;
Björnebol Backen, Mellerud;Mellerud;;3227034;;80;Björnebol Förvaltning AB;companies/show/3227034;;1499;Generering av elektricitet;
Stenstorp 1, Mellerud;Mellerud;0;3227044;;80;Karlberg, Leif Gunnar;companies/show/3227044;;1098;Blandat jordbruk;
Näset 1, Mellerud;Mellerud;0;3227045;;80;Norling, Kurt Eddy Jörgen;companies/show/3227045;;1101;Service till husdjursskötsel;
Box 734, Uddevalla;Mellerud;0;3227046;;80;Brandt Fastigheter i Mellerud Kommanditbolag;companies/show/3227046;;1921;Uthyrning och förvaltning av egna eller arrenderade, andra lokaler;
Landsvägsgatan 80, Mellerud;Mellerud;1-4;3227047;;80;Bildelsshopen Mellerud AB;companies/show/3227047;;1581;Detaljhandel med reservdelar och tillbehör till motorfordon utom motorcyklar;
Tjäregraven 3, Mellerud;Mellerud;0;3246579;;80;Live Act;companies/show/3246579;;1991;Uthyrning och leasing av övrig utrustning och övriga maskiner och materiella tillgångar;
Ör Åker Åkershagarna 1, Mellerud;Mellerud;0;3246580;;80;Åström, Caroline Elisabeth;companies/show/3246580;;1098;Blandat jordbruk;
Ödetorp Ekens 1, Mellerud;Mellerud;0;3246584;;80;Fredrik Ottossons Entrepenad;companies/show/3246584;;1566;Uthyrning av bygg- och anläggningsmaskiner med förare;
Hult 20, Mellerud;Mellerud;0;3246595;;80;Åbom, Per Henrik;companies/show/3246595;;1098;Blandat jordbruk;
Skållerud Eriksbyn 27, Mellerud;Mellerud;10-19;3246600;;80;Kullens Materialhantering AB;companies/show/3246600;;1528;Byggande av bostadshus och andra byggnader;
Gasebergsängen, Mellerud;Mellerud;5-9;3246601;;80;Hagsgårds Lantbruk AB;companies/show/3246601;;1055;Odling av spannmål (utom ris), baljväxter och oljeväxter;
Box 22, Mellerud;Mellerud;;3246602;;80;Cleenbar AB;companies/show/3246602;;1310;Annan plastvarutillverkning;
Kolungens Gård 2, Mellerud;Mellerud;10-19;3246609;;80;Elinsta Nät AB;companies/show/3246609;;1536;Anläggningsarbeten för el och telekommunikation;
Gamla vägen 20, Åsensbruk;Åsensbruk;0;3274975;;80;Miljösystem i Göteborg Kommanditbolag;companies/show/3274975;;1946;Teknisk konsultverksamhet inom industriteknik;
Gunnarsnäs Berg 2, Mellerud;Mellerud;0;3282602;"bilverkstad
bilreparation
bilreparationer
bilservice
";80;Gustavsson, Urban Daniel;companies/show/3282602;;1575;Allmän service och reparation av motorfordon utom motorcyklar;
Ör Bön 6, Mellerud;Mellerud;0;3282619;;80;Norrman, Gunvor Ing-Marie;companies/show/3282619;;2134;Litterärt och konstnärligt skapande;
Svankila Svanängen 1, Köpmannebro;Köpmannebro;0;3282626;;80;Naraine, David Steven;companies/show/3282626;;1107;Skogsförvaltning;
Dansbo 2, Dalskog;Dalskog;0;3282628;Åkeri;80;Mats Emanuelsson Åkeri AB;companies/show/3282628;;1775;Vägtransport, godstrafik;
Ransbergsvägen 52, Köpmannebro;Köpmannebro;0;3334995;;80;Benjaminsson, Karl Tobias;companies/show/3334995;;1528;Byggande av bostadshus och andra byggnader;
Västerråda 1, Mellerud;Mellerud;0;3334998;;80;Lundgren, Sven Lennart;companies/show/3334998;;1107;Skogsförvaltning;
Tussilagovägen 10, Dals Rostock;Dals Rostock;;3335000;;80;Plastweld Plastmaskiner Skandinavia AB;companies/show/3335000;;1636;Partihandel med verktygsmaskiner;
Ör Bön 5, Mellerud;Mellerud;0;3381782;;80;Andersson Snickeri Norra Bohuslän;companies/show/3381782;;1499;Generering av elektricitet;
Åsebro 18, Mellerud;Mellerud;0;3397966;;80;Svensson, Björn Ulf Mattias;companies/show/3397966;;1101;Service till husdjursskötsel;
Storgatan 8, Mellerud;Mellerud;1-4;3397967;;80;Leksakshuset i Mellerud AB;companies/show/3397967;;1715;Specialiserad butikshandel med spel och leksaker;
Box 72, Mellerud;Mellerud;5-9;3397975;;80;Reveda i Mellerud AB;companies/show/3397975;;1933;Redovisning och bokföring;
Västergården 6, Mellerud;Mellerud;0;3416131;;80;Johansson, Anna Kristina;companies/show/3416131;;1940;Konsultverksamhet avseende företags organisation;
Hantverkargatan 1, Mellerud;Mellerud;;3434979;;80;Oscar Invest i Mellerud AB;companies/show/3434979;;1920;Uthyrning och förvaltning av egna eller arrenderade industrilokaler;
Karihagen 1, Mellerud;Mellerud;0;3434981;;80;Magnus Entreprenad;companies/show/3434981;;1098;Blandat jordbruk;
Sunnanå Kullen 9:18, Mellerud;Mellerud;1000-1499;3434985;;80;Melleruds Kommun;companies/show/3434985;;2117;Heldygnsvård med boende för barn och ungdomar med sociala problem;Hvb Spera
Kurt Hellbergs gata 4, Mellerud;Mellerud;0;3461087;;80;Företagshuset i Mellerud AB;companies/show/3461087;;1920;Uthyrning och förvaltning av egna eller arrenderade industrilokaler;
Borgan, Mellerud;Mellerud;1-4;3461093;;80;Borgans Lantbruk AB;companies/show/3461093;;1100;Service till växtodling;
Köpmantorget 3, Mellerud;Mellerud;1-4;3510939;;80;Bowlingsklubben Håvås;companies/show/3510939;;2152;Sportklubbars och idrottsföreningars verksamhet;
Södra Hagen 16, Mellerud;Mellerud;0;3510946;;80;Berg, Gert Anders Ingemar;companies/show/3510946;;1084;Uppfödning av andra nötkreatur och bufflar;
Kobergsvägen 5, Åsensbruk;Åsensbruk;0;3510957;;80;Håkansson Skog och Virke;companies/show/3510957;;1107;Skogsförvaltning;
Hede Brännorna 1, Mellerud;Mellerud;0;3548295;;80;Nodins Lantbruk;companies/show/3548295;;1107;Skogsförvaltning;
Guttvik Udden 1, Mellerud;Mellerud;0;3548304;;80;Stengård, Per Axel Göran;companies/show/3548304;;1920;Uthyrning och förvaltning av egna eller arrenderade industrilokaler;
Bäckliden 1, Kungälv;Mellerud;0;3548322;;80;Duell, Nils Carl Gustav;companies/show/3548322;;1098;Blandat jordbruk;
Gunnersbyvägen 10, Dalskog;Dalskog;0;3548327;;80;Torkels Entreprenad;companies/show/3548327;;1109;Övrig skoglig verksamhet;
Vena Säby 1, Mellerud;Mellerud;0;3577656;;80;"Marianne Westman och Uno&amp;agneta Carlsson";companies/show/3577656;;1055;Odling av spannmål (utom ris), baljväxter och oljeväxter;
Vena Säby 1, Mellerud;Mellerud;0;3577658;;80;Carlsson, Märta Marianne;companies/show/3577658;;1055;Odling av spannmål (utom ris), baljväxter och oljeväxter;
Vibergsön 15, Köpmannebro;Köpmannebro;1-4;3577664;;80;Soagi AB;companies/show/3577664;;1949;Övrig teknisk konsultverksamhet;
Södra Kroken 2, Mellerud;Mellerud;0;3577670;;80;Pettersson, Lisbet Mariana;companies/show/3577670;;1107;Skogsförvaltning;
Håkonebyn 4, Mellerud;Mellerud;0;3577674;;80;Jonsson, Hans Jonas;companies/show/3577674;;1083;Mjölkproduktion och uppfödning av nötkreatur och mjölkras;
Ekholmen Nybygget 1, Dals Rostock;Dals Rostock;0;3598717;;80;"Åj&#39;s Alltjänst";companies/show/3598717;;1543;Mark- och grundarbeten;
Ör Åker Åkershagarna, Mellerud;Mellerud;0;3598722;;80;"Morgan Svensson För Morgan Svensson &amp; Caroline Å";companies/show/3598722;;1098;Blandat jordbruk;
Ör Frestersbyn 21, Mellerud;Mellerud;0;3598727;;80;Åström, Karin Anneli;companies/show/3598727;;2134;Litterärt och konstnärligt skapande;
Grösäter 2, Mellerud;Mellerud;0;3650501;;80;Karlsson, Karl Tobias Georg;companies/show/3650501;;1055;Odling av spannmål (utom ris), baljväxter och oljeväxter;
Ränsliden Delesmyren 1, Dalskog;Dalskog;0;3650504;;80;Niklasson, Kersti Maria;companies/show/3650504;;1068;Odling av övriga ett- och tvååriga växter;
Odengatan 20, Mellerud;Mellerud;0;3650507;;80;Flodin, Fredrik;companies/show/3650507;;1107;Skogsförvaltning;
Brunnsvägen 82, Dals Rostock;Dals Rostock;0;3650515;;80;Jordbruksfastigheten Mellerud Östra Järn 1:16;companies/show/3650515;;1098;Blandat jordbruk;
Grinstad Kleven 1, Mellerud;Mellerud;0;3650519;;80;Eriksson, Malin Carina Mariana B;companies/show/3650519;;1101;Service till husdjursskötsel;
Sunnanå Kullen 7  BV, Mellerud;Mellerud;0;3650523;;80;Bjarnesjö, Eva Katarina;companies/show/3650523;;1959;Reklambyråverksamhet;
Björnebol 40, Mellerud;Mellerud;1-4;3659288;;80;Jimek AB;companies/show/3659288;;1494;Reparation och underhåll av andra transportmedel;
Ransberg Södra Hästhagen, Köpmannebro;Köpmannebro;1-4;3660557;;80;"Mark &amp; Maskin Trestad AB";companies/show/3660557;;1567;Övrig specialiserad bygg- och anläggningsverksamhet;
Svecklingebyn Jonserud 1, Mellerud;Mellerud;0;3748550;;80;Norr, Sofia Therese;companies/show/3748550;;1098;Blandat jordbruk;
Källeberg 5, Mellerud;Mellerud;0;3748552;snickare;80;Fredriksson, Carl Bengt Andreas;companies/show/3748552;;1555;Byggnadssnickeriarbeten;
Karlslundsvägen 18, Dals Rostock;Dals Rostock;0;3748559;snickare;80;Sjöman, Rune Niklas;companies/show/3748559;;1555;Byggnadssnickeriarbeten;
Hällan Backerud 5, Dals Rostock;Dals Rostock;0;3748564;;80;Raubickas, Tomas;companies/show/3748564;;1528;Byggande av bostadshus och andra byggnader;
Nyponvägen 7, Åsensbruk;Åsensbruk;0;3748576;målare;80;Kristensen, Klas Öjvin;companies/show/3748576;;1558;Måleriarbeten;
Östevatten 10, Mellerud;Mellerud;0;3748587;;80;Ljungdahl Pettersson, Annika K;companies/show/3748587;;1098;Blandat jordbruk;
Hasslegatan 13, Mellerud;Mellerud;0;3748590;frisör frisörer frissa hårklippning;80;Gustafsson, Sandra Maria Victoria;companies/show/3748590;;2187;Hårvård;
Bringsrovägen 15, Dals Rostock;Dals Rostock;0;3783413;;80;Christensen, Tommy Johan;companies/show/3783413;;2132;Artistisk verksamhet;
Bäckens Gård 1, Mellerud;Mellerud;1-4;3784603;;80;Arrestrand, Tord Fredrik Michael;companies/show/3784603;;1110;Drivning;
Trädgårdsgatan 5, Mellerud;Mellerud;0;3787154;;80;Cartho Datateknik;companies/show/3787154;;1867;Dataprogrammering;
Backa 7, Dals Rostock;Dals Rostock;0;3789885;snickare;80;Olesens Bygg;companies/show/3789885;;1555;Byggnadssnickeriarbeten;
Eldaregatan 4, Mellerud;Mellerud;100-199;3789893;;80;Enercon Energy Converter AB;companies/show/3789893;;1536;Anläggningsarbeten för el och telekommunikation;
Järn Korsgården 1, Mellerud;Mellerud;1-4;3789896;;80;DKS Sverige AB;companies/show/3789896;;1945;Teknisk konsultverksamhet inom bygg och anläggningsteknik;
Nils Ericsons väg 1, Håverud;Håverud;0;3789898;;80;Stiftelsen För Dalslands Kanals Framtida Bestånd;companies/show/3789898;;2170;Verksamhet i andra intresseorganisationer;
Erikstad Bön Ängen 2, Mellerud;Mellerud;0;3796960;;80;KM Teknikkonsult;companies/show/3796960;;1946;Teknisk konsultverksamhet inom industriteknik;
Georgsgatan 6, Mellerud;Mellerud;0;3808555;;80;Elofsson, Kjell Elof Tony;companies/show/3808555;;2153;Drift av gymanläggningar;
Brunnsvägen 67, Dals Rostock;Dals Rostock;0;3828312;;80;Hasselhorn, Tilmann;companies/show/3828312;;1567;Övrig specialiserad bygg- och anläggningsverksamhet;
Bergsgatan 28, Mellerud;Mellerud;1000-1499;3828317;;80;Melleruds Kommun;companies/show/3828317;;2151;Drift av sporthallar, idrottsplatser och andra sportanläggningar;Rådahallen
Källeberg 4, Mellerud;Mellerud;0;3828324;;80;Karlsson, Hans Krister;companies/show/3828324;;1055;Odling av spannmål (utom ris), baljväxter och oljeväxter;
Sörhagen 2, Mellerud;Mellerud;0;3828332;;80;Elofsson, Kjell Karl Tomas;companies/show/3828332;;1101;Service till husdjursskötsel;
Vedbyholms Egendom 1, Mellerud;Mellerud;0;3849118;;80;T Nordströms Lantbruk;companies/show/3849118;;1055;Odling av spannmål (utom ris), baljväxter och oljeväxter;
Norra Kyrklidsvägen 21, Åsensbruk;Åsensbruk;0;3849135;;80;Nordiska Tomtemuseet;companies/show/3849135;;1742;Specialiserad butikshandel med antikviteter och begagnade böcker;
Glysbyn Dymaden 1, Mellerud;Mellerud;0;3855283;Åkeri;80;Berggrens Entreprenad;companies/show/3855283;;1775;Vägtransport, godstrafik;
Norra Gunnersbyn 4, Dalskog;Dalskog;0;3872332;;80;Floberg, Lars Bo Mikael;companies/show/3872332;;1098;Blandat jordbruk;
Bolstad Låssbyn Kasen 1, Mellerud;Mellerud;0;3872336;snickare;80;Martin Klang;companies/show/3872336;;1555;Byggnadssnickeriarbeten;
Bäckeforsvägen 24, Dalskog;Dalskog;;3872341;;80;Compania Comder AB;companies/show/3872341;;1868;Datakonsultverksamhet;
Äckerud 20 Erikstad, Mellerud;Mellerud;1-4;3917331;;80;Roys Alltjänst AB;companies/show/3917331;;1489;Reparation av maskiner;
Mossen 3, Mellerud;Mellerud;0;3917336;;80;"Åse&#39;s Möbeltapetseri";companies/show/3917336;;2179;Reparation av möbler och heminredning;
Västanväga 3, Mellerud;Mellerud;1-4;3917344;;80;Lindbergs Maskin och Mekaniska AB;companies/show/3917344;;1543;Mark- och grundarbeten;
Bron Norra 5, Köpmannebro;Köpmannebro;0;3917347;;80;Oskarsson, Jan-Olov;companies/show/3917347;;1107;Skogsförvaltning;
Skälebol Mossen 1, Mellerud;Mellerud;0;3920264;"bilglas
bilplåt
billack";80;Börresen, Ivar;companies/show/3920264;;1576;Plåt-, lack- och glasreparationer på motorfordon utom motorcyklar;
Bolstad Flinkerud 1, Mellerud;Mellerud;0;3924163;;80;Crona, Erik Gustav Ingvar;companies/show/3924163;;1098;Blandat jordbruk;
Bringsrovägen 51, Dals Rostock;Dals Rostock;0;3939861;;80;Åhlvik Söderlund, Kerstin;companies/show/3939861;;1824;Vandrarhemsverksamhet;
Ekholmen 10, Mellerud;Mellerud;0;3939869;;80;DGT Fastighetsförvaltning AB;companies/show/3939869;;1920;Uthyrning och förvaltning av egna eller arrenderade industrilokaler;
Holms Skogsbol 1, Mellerud;Mellerud;0;3961310;;80;Emanuelsson, Oscar Nils Otto;companies/show/3961310;;1543;Mark- och grundarbeten;
Ekarebol Gård 1, Mellerud;Mellerud;0;3961311;;80;Ekarebols Lantbruk;companies/show/3961311;;1098;Blandat jordbruk;
Bäckens Gård 1, Mellerud;Mellerud;10-19;3961317;;80;Hilmér Lantbruk AB;companies/show/3961317;;1090;Uppfödning av slaktsvin;
Holms Torp 6, Mellerud;Mellerud;5-9;3961324;"hotell
hotel
hotell med restaurang
hotell med restaurant";80;Lucabo AB;companies/show/3961324;;1820;Hotellverksamhet med restaurangrörelse;
Gunvarbyn 2, Mellerud;Mellerud;;3961325;;80;Gunvarbyn Såg, Kvarn och Kraftstation AB;companies/show/3961325;;1499;Generering av elektricitet;
Amundsrud 1, Mellerud;Mellerud;0;4017379;;80;Moll, Dan Marcus;companies/show/4017379;;1531;Anläggning av vägar och motorvägar;
Hjärtungen 9, Mellerud;Mellerud;0;4023944;Åkeri;80;Martiensen Transport Mellerud;companies/show/4023944;;1775;Vägtransport, godstrafik;
Örsberg 9, Mellerud;Mellerud;0;4039439;;80;Forsman, Per Åke;companies/show/4039439;;1945;Teknisk konsultverksamhet inom bygg och anläggningsteknik;
Tillhagen 8, Mellerud;Mellerud;1-4;4039442;;80;Tillhagens Entreprenad;companies/show/4039442;;1100;Service till växtodling;
Storgatan 36, Mellerud;Mellerud;1-4;4039447;;80;Equmeniakyrkan Mellerud;companies/show/4039447;;2168;Verksamhet i religiösa samfund;
Ransberg Södra Hästhagen 1, Köpmannebro;Köpmannebro;0;4039459;;80;Nilsson, John Martin;companies/show/4039459;;1921;Uthyrning och förvaltning av egna eller arrenderade, andra lokaler;
Nygården 5, Mellerud;Mellerud;0;4039466;;80;Nygårdens Mekaniska;companies/show/4039466;;1494;Reparation och underhåll av andra transportmedel;
Brunnsvägen 38, Dals Rostock;Dals Rostock;1-4;4061418;Åkeri;80;Fjord Trans;companies/show/4061418;;1775;Vägtransport, godstrafik;
Odengatan 12, Åmål;Mellerud;;4061422;;80;GBR Sunnanå AB;companies/show/4061422;;1921;Uthyrning och förvaltning av egna eller arrenderade, andra lokaler;
Örnäs 3, Mellerud;Mellerud;0;4084986;;80;Larsson, Bengt Morgan;companies/show/4084986;;1055;Odling av spannmål (utom ris), baljväxter och oljeväxter;
Torsgatan 24, Mellerud;Mellerud;0;4084990;;80;Hermansson, Andreas Karl Sören;companies/show/4084990;;1581;Detaljhandel med reservdelar och tillbehör till motorfordon utom motorcyklar;
Eldaregatan 2, Mellerud;Mellerud;500-999;4084991;;80;Besikta Bilprovning i Sverige AB;companies/show/4084991;;1950;Teknisk provning och analys;Mellerud
Rapsgatan, Mellerud;Mellerud;1000-1499;4085000;;80;Melleruds Kommun;companies/show/4085000;;2110;Boende med särskild service för personer med utvecklingsstörning, psykiska funktionshinder eller missbruksproblem;Korttis Stjärnan
Ymers gata 7, Mellerud;Mellerud;1000-1499;4085001;;80;Melleruds Kommun;companies/show/4085001;;2058;Förskoleutbildning;Förskola Ymer
Österrådagatan, Mellerud;Mellerud;1000-1499;4085002;;80;Melleruds Kommun;companies/show/4085002;;2037;Administration av omsorg och socialtjänst;Myndighetsenheten, Stöd och Service
Norra Bäckebol Ängen 2, Dals Rostock;Dals Rostock;0;4085011;;80;Stenén, Rune Karl-Johan;companies/show/4085011;;1098;Blandat jordbruk;
Bergsgatan 31, Mellerud;Mellerud;0;4108046;"bilhandel
bilhandlare";80;CJ Nordgrens Garage;companies/show/4108046;;1570;Handel med personbilar och lätta motorfordon;
Pålbön 1, Mellerud;Mellerud;0;4108048;;80;Sundströms Maskintjänst;companies/show/4108048;;1100;Service till växtodling;
Ör Backen 9, Mellerud;Mellerud;0;4127042;;80;Nagashima Toft, Martin;companies/show/4127042;;2132;Artistisk verksamhet;
Linderud 6  46494 Mellerud, Mellerud;Mellerud;1-4;4127045;;80;Forspeed i Mellerud AB;companies/show/4127045;;1581;Detaljhandel med reservdelar och tillbehör till motorfordon utom motorcyklar;
Grinstad Åker 3, Mellerud;Mellerud;0;4127046;snickare;80;Djurrema, Hendrik;companies/show/4127046;;1555;Byggnadssnickeriarbeten;
Ryrsvägen 31, Köpmannebro;Köpmannebro;1-4;4127060;;80;S-Å Va-Teknik AB;companies/show/4127060;;1948;Teknisk konsultverksamhet inom energi-, miljö- och VVS-teknik;
Postgatan 25, Mellerud;Mellerud;0;4147078;;80;C D S Skrot och All Tjänst Kommanditbolag;companies/show/4147078;;1661;Partihandel med metallavfall och metallskrot;
Grinstad Södra Hagen 4, Mellerud;Mellerud;0;4147082;;80;Camacho, Johan Emil Alexander;companies/show/4147082;;1921;Uthyrning och förvaltning av egna eller arrenderade, andra lokaler;
Vibergsön 32, Köpmannebro;Köpmannebro;0;4147087;snickare;80;Antonssons Bygg och Alltjänst;companies/show/4147087;;1555;Byggnadssnickeriarbeten;
Storgatan 14, Mellerud;Mellerud;1-4;4168267;livsmedelsaffär;80;Orientaliska Livsmedelsbutik Mellerud Handelsbol;companies/show/4168267;;1668;Livsmedelshandel med brett sortiment, ej varuhus eller stormarknad;
Norra Kungsgatan 31  Lgh 1104, Mellerud;Mellerud;0;4168270;;80;Henåa Market;companies/show/4168270;;1761;Ambulerande och tillfällig handel med livsmedel;
Skogvaktarvägen 1, Ängelsberg;Mellerud;;4168276;;80;Vita Mobile AB;companies/show/4168276;;1455;Byggande av fritidsbåtar;
Östevatten 1, Mellerud;Mellerud;0;4168281;;80;Svennungerud;companies/show/4168281;;1084;Uppfödning av andra nötkreatur och bufflar;
Mellerudsgatan 2 A, Mellerud;Mellerud;;4168286;tandläkare;80;Molarbjörnen AB;companies/show/4168286;;2099;Tandläkarverksamhet;
Mellerudsgatan 8, Mellerud;Mellerud;1-4;4168287;;80;Robin Blücher AB;companies/show/4168287;;1543;Mark- och grundarbeten;
Bolstad Vallarna 1, Mellerud;Mellerud;0;4174739;;80;Frendberg, Lars Erik Svante;companies/show/4174739;;1543;Mark- och grundarbeten;
Ör Frestersbyn 7, Mellerud;Mellerud;0;4191843;;80;Gunnarsson, Anton Christoffer;companies/show/4191843;;1098;Blandat jordbruk;
Gokroksvägen 4, Åsensbruk;Åsensbruk;0;4191845;;80;Blom, Bengt Tomas;companies/show/4191845;;1068;Odling av övriga ett- och tvååriga växter;
Östra Lindstorp 1, Mellerud;Mellerud;0;4216488;;80;Norgren, Gunilla Charlott;companies/show/4216488;;1919;Uthyrning och förvaltning av egna eller arrenderade bostäder;
Ör Frestersbyn 11, Mellerud;Mellerud;0;4216500;;80;Lundgren, Gösta Mattias;companies/show/4216500;;1055;Odling av spannmål (utom ris), baljväxter och oljeväxter;
Sapphultsgatan 5, Mellerud;Mellerud;20-49;4238227;;80;"Sundströms Schakt &amp; Maskin AB";companies/show/4238227;;1528;Byggande av bostadshus och andra byggnader;
Ör Frestersbyn Stommen 1, Mellerud;Mellerud;0;4238233;;80;Lundgren, Gerd Martina;companies/show/4238233;;1061;Odling av grönsaker(köksväxter) i växthus;
Dalslandsgatan 20, Mellerud;Mellerud;0;4238238;;80;"Tott Ljud &amp; Nöjesproduktion";companies/show/4238238;;1991;Uthyrning och leasing av övrig utrustning och övriga maskiner och materiella tillgångar;
Grinstad Långerud 3, Mellerud;Mellerud;1-4;4258873;;80;JS : Partner AB;companies/show/4258873;;1567;Övrig specialiserad bygg- och anläggningsverksamhet;
Landsvägsgatan 80, Mellerud;Mellerud;10-19;4261760;;80;Johan Aronsson Entreprenad AB;companies/show/4261760;;1536;Anläggningsarbeten för el och telekommunikation;
Torpgatan 21, Mellerud;Mellerud;1-4;4261767;;80;Vaidas Bygg o Mark AB;companies/show/4261767;;1543;Mark- och grundarbeten;
Storgatan 3, Mellerud;Mellerud;1-4;4261775;fastighetsmäklare,mäklare;80;Stefanssons Fastighetsbyrå AB;companies/show/4261775;;1925;Fastighetsförmedling;
Adamserud 1, Mellerud;Mellerud;0;4269921;;80;Johannesson, Hans Örjan Georg;companies/show/4269921;;1107;Skogsförvaltning;
Tobräckan 1, Mellerud;Mellerud;0;4284211;;80;Torstensson, Ragnar Karl Axel;companies/show/4284211;;1098;Blandat jordbruk;
Kambol 7, Mellerud;Mellerud;1-4;4284213;;80;Bergpro AB;companies/show/4284213;;1946;Teknisk konsultverksamhet inom industriteknik;
Sjögatan 8, Mellerud;Mellerud;1-4;4284217;"Rörmokare
rörmokeri";80;Dalslands Vvs AB;companies/show/4284217;;1548;Värme- och sanitetsarbeten;
Erikstad Göbyn Berget, Mellerud;Mellerud;1-4;4284219;;80;Göbyn Lantbruk AB;companies/show/4284219;;1055;Odling av spannmål (utom ris), baljväxter och oljeväxter;
Ryrsvägen 23, Köpmannebro;Köpmannebro;0;4284220;;80;Larsson, Mats Einar;companies/show/4284220;;1921;Uthyrning och förvaltning av egna eller arrenderade, andra lokaler;
Järn Låssbyn 7, Mellerud;Mellerud;0;4284222;;80;Dalnet Ek. För.;companies/show/4284222;;1862;Trådbunden telekommunikation;
Köpmantorget 3, Mellerud;Mellerud;10-19;4284225;livsmedelsaffär;80;Matglädje i Mellerud AB;companies/show/4284225;;1668;Livsmedelshandel med brett sortiment, ej varuhus eller stormarknad;
Holmsgatan 1i, Mellerud;Mellerud;;4305405;;80;Kaj2 AB;companies/show/4305405;;1894;Förvaltning av och handel med värdepapper, för en begränsad och sluten krets av ägare;
Norra Gunnersbyn 3, Dalskog;Dalskog;0;4305412;;80;Emanuelsson, Regina Therese;companies/show/4305412;;1107;Skogsförvaltning;
Linnégatan 40, Mellerud;Mellerud;1-4;4328215;;80;Dalslands Fornminnes- o Hembygdsförbund;companies/show/4328215;;2170;Verksamhet i andra intresseorganisationer;
Odengatan 61, Mellerud;Mellerud;5-9;4328217;;80;Sparrow Recycling AB;companies/show/4328217;;1661;Partihandel med metallavfall och metallskrot;
Brunnsvägen 76, Dals Rostock;Dals Rostock;0;4328218;;80;Rostocks Keramikverk;companies/show/4328218;;1697;Specialiserad butikshandel med inredningstextilier;
Liane 1, Dalskog;Dalskog;1-4;4328229;bemanning;80;Prolikon AB;companies/show/4328229;;1995;Personaluthyrning;
Kroppefjäll 2 Vån2, Dals Rostock;Dals Rostock;0;4353503;;80;Lundgren, Asta Maria Helen;companies/show/4353503;;1101;Service till husdjursskötsel;
Oxgatan 15, Mellerud;Mellerud;5-9;4353513;"Restaurant
Restaurang
Matställe
Bar";80;Vita Sannar Pizzeria;companies/show/4353513;;1829;Restaurangverksamhet;
Rud Kroken 1, Mellerud;Mellerud;1-4;4353515;;80;Allbygg David Svensson;companies/show/4353515;;1919;Uthyrning och förvaltning av egna eller arrenderade bostäder;
Backa 7, Dals Rostock;Dals Rostock;1-4;4353523;;80;Olesens Bygg AB;companies/show/4353523;;1528;Byggande av bostadshus och andra byggnader;
Backa 1, Dals Rostock;Dals Rostock;0;4353528;;80;Mellander, Annica Eva-Jane;companies/show/4353528;;1107;Skogsförvaltning;
Liane 1, Dalskog;Dalskog;;4379838;;80;MLD Comfort Leasing AB;companies/show/4379838;;1979;Uthyrning och leasing av personbilar och lätta motorfordon;
Norra Gunnersbyn 3, Dalskog;Dalskog;0;4379840;;80;Emanuelsson, Jan Tony Ingemar;companies/show/4379840;;1108;Skogsskötsel;
Stomgatan 15, Mellerud;Mellerud;;4379843;Åkeri;80;Lars Johansson i Mellerud AB;companies/show/4379843;;1775;Vägtransport, godstrafik;
Ör Backen 9, Mellerud;Mellerud;0;4379845;;80;Forsebo, Anna Josefina Kristina;companies/show/4379845;;2132;Artistisk verksamhet;
Adamserud Tuten 1, Mellerud;Mellerud;0;4379846;;80;Andersson, Eva Britta Kristina;companies/show/4379846;;1098;Blandat jordbruk;
Ör Frestersbyn Lund 1, Mellerud;Mellerud;1-4;4379851;;80;Örs Entreprenad AB;companies/show/4379851;;1543;Mark- och grundarbeten;
Brunnsvägen 84, Dals Rostock;Dals Rostock;0;4383974;;80;Lind, Sven Jonatan Kristofer;companies/show/4383974;;1854;Efterproduktion av film, video och tv-program;
Anolfsbol 5, Mellerud;Mellerud;1-4;4416396;;80;Grön Gestaltning;companies/show/4416396;;1567;Övrig specialiserad bygg- och anläggningsverksamhet;
Bolstad Prästgård 6, Mellerud;Mellerud;0;4416399;;80;Berg, Lars Anders Ivan;companies/show/4416399;;1100;Service till växtodling;
Assarebyn 1, Mellerud;Mellerud;0;4416403;;80;Eriksson, Lars Erik;companies/show/4416403;;1055;Odling av spannmål (utom ris), baljväxter och oljeväxter;
Nya Slottsbacken 2, Mellerud;Mellerud;0;4416409;;80;Sjöberg, Håkan Bertil;companies/show/4416409;;1098;Blandat jordbruk;
Grösäter 9, Mellerud;Mellerud;0;4416411;;80;Johansson, Bror Sven Daniel;companies/show/4416411;;1920;Uthyrning och förvaltning av egna eller arrenderade industrilokaler;
Snäcke Kanal 3, Köpmannebro;Köpmannebro;0;4439368;;80;Andreasson, Karl Ragnar;companies/show/4439368;;1055;Odling av spannmål (utom ris), baljväxter och oljeväxter;
Hjortens Fyrväg 22 B, Mellerud;Mellerud;0;4439371;;80;Peter Svenssons Plåtmontage;companies/show/4439371;;1920;Uthyrning och förvaltning av egna eller arrenderade industrilokaler;
Erikstad Björnebol 29, Mellerud;Mellerud;200-499;4439374;;80;Svenska Foder AB;companies/show/4439374;;1731;Specialiserad butikshandel med små sällskapsdjur;
Kroppefjäll 2, Dals Rostock;Dals Rostock;;4439390;;80;Jom AB;companies/show/4439390;;1894;Förvaltning av och handel med värdepapper, för en begränsad och sluten krets av ägare;
Hult Stommen 1, Dals Rostock;Dals Rostock;0;4447617;;80;Hjelmqvist, Malin Kristina;companies/show/4447617;;1854;Efterproduktion av film, video och tv-program;
Kambol 1, Mellerud;Mellerud;1-4;4486255;;80;P Ferm Entreprenad och Konsult AB;companies/show/4486255;;1543;Mark- och grundarbeten;
Rostocksgatan 27 C Lgh 1002, Mellerud;Mellerud;0;4486269;;80;Dalslands Webdesign;companies/show/4486269;;1867;Dataprogrammering;
Upperuds Gård 1, Åsensbruk;Åsensbruk;0;4486270;;80;Lundberg, Lars Oscar;companies/show/4486270;;1084;Uppfödning av andra nötkreatur och bufflar;
Gärdesgatan 21, Mellerud;Mellerud;0;4490676;;80;"Vedbyholms Ved &amp; Entreprenad";companies/show/4490676;;1543;Mark- och grundarbeten;
Byggmästargatan 24, Mellerud;Mellerud;;4504789;elektriker;80;Osr Teknik AB;companies/show/4504789;;1546;Elinstallationer;
Äspesäters Gård 1, Mellerud;Mellerud;0;4504792;;80;Gustav Hilmér;companies/show/4504792;;1100;Service till växtodling;
Ed 7, Mellerud;Mellerud;0;4504794;;80;Sieverthson, Michaela Christina A;companies/show/4504794;;2014;Skötsel och underhåll av grönytor;
Snäcke Kanal 9, Köpmannebro;Köpmannebro;0;4504798;;80;Nilsson, Lars Henrik;companies/show/4504798;;1107;Skogsförvaltning;
Landsvägsgatan 53, Mellerud;Mellerud;10-19;4535094;livsmedelsaffär;80;Länsmanstorgets Stormarknad AB;companies/show/4535094;;1668;Livsmedelshandel med brett sortiment, ej varuhus eller stormarknad;ICA Supermarket Kronan
Stockenäs 4, Mellerud;Mellerud;1-4;4558291;;80;Stockenäs Konsult AB;companies/show/4558291;;2126;Öppna sociala insatser för barn och ungdomar med sociala problem;
Falkgatan 13, Mellerud;Mellerud;1-4;4558292;;80;Divad Entreprenad AB;companies/show/4558292;;1543;Mark- och grundarbeten;
Skållerud Eriksbyn 2, Mellerud;Mellerud;0;4558293;;80;Flink, Mikael Christoffer;companies/show/4558293;;1114;Övrig service till skogsbruk;
Ängenäs 1, Mellerud;Mellerud;0;4558296;;80;Oskarsson, Lena Margareta;companies/show/4558296;;2191;Övriga konsumenttjänster;
Kambol Stommen 1, Mellerud;Mellerud;1-4;4558304;;80;Cadrotech AB;companies/show/4558304;;1390;Diverse övrig metallvarutillverkning;
Rud Kroken 2, Mellerud;Mellerud;0;4558306;"bilverkstad
bilreparation
bilreparationer
bilservice
";80;Brorsons Motorsport;companies/show/4558306;;1575;Allmän service och reparation av motorfordon utom motorcyklar;
Bäckgatan 4, Mellerud;Mellerud;0;4558308;massage;80;Gustavsson, Marion Elisabeth;companies/show/4558308;;2190;Kroppsvård;
Hjärtungens Gård 2, Mellerud;Mellerud;0;4558316;;80;"QRS Ljud &amp; Ljus";companies/show/4558316;;1991;Uthyrning och leasing av övrig utrustning och övriga maskiner och materiella tillgångar;
Kärragatan 19, Mellerud;Mellerud;1-4;4569332;"Rörmokare
rörmokeri";80;DP Rörservice AB;companies/show/4569332;;1548;Värme- och sanitetsarbeten;
Långgatan 58, Mellerud;Mellerud;5-9;4569333;;80;"Jemab Montage &amp; Installation AB";companies/show/4569333;;1686;Specialiserad butikshandel med datorer, programvara, data- och tv-spel;
Ekarebol Gård 1, Mellerud;Mellerud;0;4569350;;80;Karlander, Helena Elsa Margareta;companies/show/4569350;;1055;Odling av spannmål (utom ris), baljväxter och oljeväxter;
Långgatan, Mellerud;Mellerud;50-99;4569353;;80;Hellbergs Dörrar i Mellerud AB;companies/show/4569353;;1369;Tillverkning av dörrar och fönster av metall;
Anolfsbyn Adamserud 1, Mellerud;Mellerud;0;4569356;;80;Skålleruds Fiberförening Ekonomisk Förening;companies/show/4569356;;1862;Trådbunden telekommunikation;
Ingribyn 10, Mellerud;Mellerud;0;4592239;;80;Udd, Viktor Claes Erik;companies/show/4592239;;1107;Skogsförvaltning;
Grinstad Bäcken 4, Mellerud;Mellerud;0;4592240;;80;Kraft, Niklas Lars Göran;companies/show/4592240;;1543;Mark- och grundarbeten;
Sunnanå Kullen 7  BV, Mellerud;Mellerud;0;4592241;;80;Bjarnesjö, Sven-Erik;companies/show/4592241;;2022;Inkassoföretags och kreditupplysningsföretags verksamhet;
Lefors 2, Mellerud;Mellerud;5-9;4592245;;80;Tängelsbols Lantbruk AB;companies/show/4592245;;1089;Uppfödning av smågrisar;
Korngatan 11, Mellerud;Mellerud;1-4;4592257;;80;Östebo Konsult AB;companies/show/4592257;;1556;Golv- och väggbeläggningsarbeten;
Hagtornsvägen 6, Dalskog;Dalskog;0;4592261;;80;Scandinavian Trade Center;companies/show/4592261;;1107;Skogsförvaltning;
Dalsjövägen 15, Köpmannebro;Köpmannebro;0;4610210;;80;Dalslands Massivhus AB;companies/show/4610210;;1239;Tillverkning av monteringsfärdiga trähus;
Björkhem 1, Mellerud;Mellerud;0;4610212;snickare;80;Svensson, Johan Oskar;companies/show/4610212;;1555;Byggnadssnickeriarbeten;
Hjortens Fyrväg 44, Mellerud;Mellerud;1-4;4610213;;80;Hjortuddens Konsult AB;companies/show/4610213;;1940;Konsultverksamhet avseende företags organisation;
Grinstad Kleven 1, Mellerud;Mellerud;0;4610216;;80;A M Entreprenad;companies/show/4610216;;1100;Service till växtodling;
Stafettgatan 2 A, Mellerud;Mellerud;1-4;4610219;;80;Jobbtjänst Mellerud AB;companies/show/4610219;;2017;Kombinerade kontorstjänster;
Köpmantorget 3, Mellerud;Mellerud;5-9;4610220;"Restaurant
Restaurang
Matställe
Bar";80;Kvarteret Börsens Restaurang och Bar AB;companies/show/4610220;;1829;Restaurangverksamhet;
Låttsbyn 1, Dals Rostock;Dals Rostock;0;4610229;;80;Blomberg, Per Georg;companies/show/4610229;;2134;Litterärt och konstnärligt skapande;
Erikstad Björnebol 2, Mellerud;Mellerud;100-199;4628359;;80;Axima AB;companies/show/4628359;;1635;Partihandel med jordbruksmaskiner och -utrustning;
Norra Kungsgatan 36, Mellerud;Mellerud;0;4628360;;80;ST Byggservice;companies/show/4628360;;1528;Byggande av bostadshus och andra byggnader;
Idrottsvägen 18, Åsensbruk;Åsensbruk;1-4;4628363;elektriker;80;Bjurströms El AB;companies/show/4628363;;1546;Elinstallationer;
Erikstad Korsbol 1, Mellerud;Mellerud;1-4;4628364;;80;SG Husvagnar AB;companies/show/4628364;;1573;Handel med husvagnar, husbilar, släpfordon och påhängsvagnar;
Södergatan 17, Mellerud;Mellerud;0;4628373;;80;Söderqvist, Majvor Carina;companies/show/4628373;;1107;Skogsförvaltning;
Fagerlidsgatan 10, Mellerud;Mellerud;0;4628375;;80;Isacsson, Sven Lars;companies/show/4628375;;1107;Skogsförvaltning;
Stomgatan 26, Mellerud;Mellerud;0;4628377;Åkeri;80;Henkes Bud i Mellerud;companies/show/4628377;;1775;Vägtransport, godstrafik;
Ekholmens Säteri 1, Dals Rostock;Dals Rostock;0;4628378;;80;"Ekholmens Café &amp; Gårdsbutik";companies/show/4628378;;1702;Specialiserad butikshandel med glas, porslin och andra bosättningsvaror;
Hjärtungen 5, Mellerud;Mellerud;0;4665609;elektriker;80;Eklund Teknik Entreprenad;companies/show/4665609;;1546;Elinstallationer;
Södra Bäckebol 1, Mellerud;Mellerud;0;4665615;;80;Knappe, Kenneth Raymond Morgan;companies/show/4665615;;1055;Odling av spannmål (utom ris), baljväxter och oljeväxter;
Bäckgatan 2, Mellerud;Mellerud;0;4665643;;80;Alexander Salén Entreprenad;companies/show/4665643;;1543;Mark- och grundarbeten;
Torpane Källeberg 1, Mellerud;Mellerud;0;4665658;;80;Falk, Anna Maria Caroline;companies/show/4665658;;1107;Skogsförvaltning;
Grinstad Hede Gård 1, Mellerud;Mellerud;0;4688137;;80;Wallin, Stefan Karl Martin;companies/show/4688137;;1055;Odling av spannmål (utom ris), baljväxter och oljeväxter;
Villavägen 13, Dals Rostock;Dals Rostock;0;4688140;;80;Dalbert, Johan;companies/show/4688140;;1098;Blandat jordbruk;
Landsvägsgatan 48, Mellerud;Mellerud;1-4;4688148;fastighetsmäklare,mäklare;80;Melleruds Fastighetsbyrå AB;companies/show/4688148;;1925;Fastighetsförmedling;
Åsmule 4, Mellerud;Mellerud;0;4709949;;80;Johansson, Eric William Henry;companies/show/4709949;;1107;Skogsförvaltning;
Kurt Hellbergs gata 4, Mellerud;Mellerud;10-19;4709950;;80;Viconia It AB;companies/show/4709950;;1868;Datakonsultverksamhet;
Sapphultsgatan 2, Mellerud;Mellerud;0;4709958;;80;Fritzéns Marin Handelsbolag;companies/show/4709958;;1921;Uthyrning och förvaltning av egna eller arrenderade, andra lokaler;
Bergsliden 9, Dals Rostock;Dals Rostock;0;4709960;;80;Fredriksson, Ester Ann-Sofie;companies/show/4709960;;1055;Odling av spannmål (utom ris), baljväxter och oljeväxter;
Gunvarbyn 10, Mellerud;Mellerud;0;4709961;;80;Forsebo, Natasha;companies/show/4709961;;1107;Skogsförvaltning;
Gunvarbyn 10, Mellerud;Mellerud;0;4709965;;80;Forsebo, Jonas Karl-Åke;companies/show/4709965;;1107;Skogsförvaltning;
Järns Stom Sonebol 1, Mellerud;Mellerud;0;4709973;;80;Eriksson, Tage Ingvar;companies/show/4709973;;1055;Odling av spannmål (utom ris), baljväxter och oljeväxter;
Ör Hagen 23, Mellerud;Mellerud;0;4709982;;80;Mikkelson Jonsson, Kjell Inge L;companies/show/4709982;;1098;Blandat jordbruk;
Gunvarbyn 5, Mellerud;Mellerud;0;4709983;;80;Sigfusson, Thorleifur;companies/show/4709983;;1976;Veterinärverksamhet;
Raglebråna gatan 1, Mellerud;Mellerud;0;4709985;;80;Svensson, Harriet Aina;companies/show/4709985;;1107;Skogsförvaltning;
Storgatan 4, Mellerud;Mellerud;;4709986;"Restaurant
Restaurang
Matställe
Bar";80;Bråna It-Cafe AB;companies/show/4709986;;1829;Restaurangverksamhet;
Kräppersrud 14, Mellerud;Mellerud;0;4720064;;80;Nyquist, Eirin Marit Isabella;companies/show/4720064;;1101;Service till husdjursskötsel;
Ör Frestersbyn 3, Mellerud;Mellerud;0;4732933;massage;80;Torin, Angelika Ellinor;companies/show/4732933;;2190;Kroppsvård;
Orions gata 1, Mellerud;Mellerud;;4732934;;80;Mabentho Handelslokaler AB;companies/show/4732934;;1920;Uthyrning och förvaltning av egna eller arrenderade industrilokaler;
Långgatan 34 C Lgh 1105, Mellerud;Mellerud;0;4732940;"bilverkstad
bilreparation
bilreparationer
bilservice
";80;Karawi, Omar;companies/show/4732940;;1575;Allmän service och reparation av motorfordon utom motorcyklar;
Muggerud 10, Mellerud;Mellerud;0;4732943;;80;Andersson, Bengt-Arne;companies/show/4732943;;1098;Blandat jordbruk;
Lapperud 1, Dalskog;Mellerud;;4732947;massage;80;Fysiofitness Dalsland AB;companies/show/4732947;;2190;Kroppsvård;
Muggerud, Mellerud;Mellerud;0;4732952;;80;Väntebacken Muggerud 1:18;companies/show/4732952;;1098;Blandat jordbruk;
Sten 1, Mellerud;Mellerud;0;4732955;;80;Brobergs Linjeservice;companies/show/4732955;;1107;Skogsförvaltning;
Ryr Ödegården 1, Köpmannebro;Köpmannebro;0;4732963;;80;Berg, Hans Fredrik;companies/show/4732963;;1378;Metallegoarbeten;
Guttvik 7, Mellerud;Mellerud;1-4;4736045;;80;Typark AB;companies/show/4736045;;1943;Arkitektverksamhet;
Muggerud Väntebacken 1, Mellerud;Mellerud;0;4739767;;80;Larsson, Gertrud Monicka;companies/show/4739767;;1098;Blandat jordbruk;
Karl Johansgatan 164 B Lgh 1001, Göteborg;Mellerud;0;4767779;;80;Kullberg, Astrid Ragna Linnéa;companies/show/4767779;;1098;Blandat jordbruk;
Stomgatan 34, Mellerud;Mellerud;0;4767780;;80;Veseli, Albert;companies/show/4767780;;1919;Uthyrning och förvaltning av egna eller arrenderade bostäder;
Norra Rådane 1, Mellerud;Mellerud;0;4767783;;80;Alexandersson, Jörgen Robert;companies/show/4767783;;1055;Odling av spannmål (utom ris), baljväxter och oljeväxter;
Gunvarbyn 5, Mellerud;Mellerud;1-4;4767787;;80;Gunvarbyns Islandshästar AB;companies/show/4767787;;1976;Veterinärverksamhet;
Hantverkargatan 3, Mellerud;Mellerud;1-4;4767788;;80;Mollösunds Skeppshandel, Br Engqvist AB;companies/show/4767788;;1714;Specialiserad butikshandel med båtar;
Östevatten 1, Mellerud;Mellerud;;4767792;;80;Svennungeruds Lantbruks AB;companies/show/4767792;;1084;Uppfödning av andra nötkreatur och bufflar;
Linnégatan 30, Mellerud;Mellerud;1-4;4767794;;80;Öhrlings Entreprenad;companies/show/4767794;;1536;Anläggningsarbeten för el och telekommunikation;
Repslagargatan 26, Mellerud;Mellerud;1-4;4767801;;80;Peter Callhs Golv AB;companies/show/4767801;;1556;Golv- och väggbeläggningsarbeten;
Kabbo 5, Dalskog;Dalskog;1-4;4819110;;80;Kabbofår AB;companies/show/4819110;;1543;Mark- och grundarbeten;
Orions gata 3 A, Mellerud;Mellerud;0;4819112;;80;Mattsson, Arne Benny Jörgen;companies/show/4819112;;1933;Redovisning och bokföring;
Forsebol 1, Mellerud;Mellerud;;4819124;;80;Forsebol AB;companies/show/4819124;;1110;Drivning;
Södra Östebo 4, Håverud;Håverud;0;4819126;;80;Hellerström, Klas Torvald;companies/show/4819126;;1098;Blandat jordbruk;
Bolstad Norra Torp 3, Mellerud;Mellerud;;4819131;;80;Incapco AB;companies/show/4819131;;1656;Partihandel med industriförnödenheter;
Landsvägsgatan 40, Mellerud;Mellerud;0;4838021;Åkeri;80;Saremi, Farzad;companies/show/4838021;;1775;Vägtransport, godstrafik;
Ingribyn 10, Mellerud;Mellerud;0;4838034;;80;Kleven Gård;companies/show/4838034;;1107;Skogsförvaltning;
Erikstad Hede 1, Mellerud;Mellerud;0;4838040;;80;Maritha Johanssons Samtalsmottagning;companies/show/4838040;;2106;Annan öppen hälso- och sjukvård, utan läkare;
Örs Prästgård Gölen 1, Mellerud;Mellerud;;4838042;;80;Vildmarkspartner Sverige AB;companies/show/4838042;;1626;Partihandel med sport- och fritidsartiklar;
Täppan 1, Mellerud;Mellerud;1-4;4838043;;80;Xclent Projects AB;companies/show/4838043;;1945;Teknisk konsultverksamhet inom bygg och anläggningsteknik;
Östra Järn 6, Mellerud;Mellerud;0;4855781;snickare;80;"JRS Snickeri &amp; Inredning";companies/show/4855781;;1555;Byggnadssnickeriarbeten;
Box 72, Mellerud;Mellerud;1-4;4855800;;80;RD Recycling Development AB;companies/show/4855800;;1589;Provisionshandel med maskiner, industriell utrustning, fartyg och luftfartyg utom kontorsutrustning och datorer;
Färjåsvägen 55, Vallda;Mellerud;0;4874299;;80;Trähab Färjås;companies/show/4874299;;1528;Byggande av bostadshus och andra byggnader;
Viktoriagatan 3, Mellerud;Mellerud;500-999;4874302;;80;"Ludvig &amp; Co AB";companies/show/4874302;;1933;Redovisning och bokföring;
Hult Sand 1, Mellerud;Mellerud;0;4874313;;80;Karlsson, Anders Gösta Evert;companies/show/4874313;;1108;Skogsskötsel;
Nygården Bredaberget 1, Mellerud;Mellerud;;4874314;;80;Nuntorp Mjölk AB;companies/show/4874314;;1083;Mjölkproduktion och uppfödning av nötkreatur och mjölkras;
Vena Säby 1, Mellerud;Mellerud;0;4881505;;80;Dalslandsmat Ekonomisk Förening;companies/show/4881505;;2163;Intressebevakning inom branschorganisationer;
Sjögatan 20, Mellerud;Mellerud;0;4894120;;80;Oscarsson, Anders Thomas;companies/show/4894120;;1107;Skogsförvaltning;
Kärra 1, Mellerud;Mellerud;0;4894123;;80;Andersson, Bengt Anders Erland;companies/show/4894123;;1098;Blandat jordbruk;
Bolstad Låssbyn 1, Mellerud;Mellerud;0;4894124;;80;Klingberg, Lars William Rickard;companies/show/4894124;;1543;Mark- och grundarbeten;
Landsvägsgatan 38, Mellerud;Mellerud;5-9;4894141;bensinstation;80;Yield Retail Mellerud AB;companies/show/4894141;;1684;Specialiserad detaljhandel med drivmedel;
Kornsjögatan 1  Sibylla, Mellerud;Mellerud;1-4;4899194;"Restaurant
Restaurang
Matställe
Bar";80;Abanoub Fastfood Mellerud AB;companies/show/4899194;;1829;Restaurangverksamhet;
Teåker Sörgården 1, Bäckefors;Bäckefors;1-4;4902079;;80;Oskarsson, Lars Niclas Anton;companies/show/4902079;;1543;Mark- och grundarbeten;
Tussilagovägen 29, Dals Rostock;Dals Rostock;0;4916004;;80;Melin, Bengt Åke Göran;companies/show/4916004;;1920;Uthyrning och förvaltning av egna eller arrenderade industrilokaler;
Blikserud 7, Mellerud;Mellerud;0;4916005;;80;Spek, Renske;companies/show/4916005;;1751;Postorderhandel och detaljhandel på internet med brett sortiment;
Karolinervägen 41, Dals Rostock;Dals Rostock;0;4916011;;80;Inez Vintage;companies/show/4916011;;1743;Specialiserad butikshandel med övriga begagnade varor;
Holmsgatan 1 L, Mellerud;Mellerud;0;4916013;frisör frisörer frissa hårklippning;80;Nordlings Dam och Herrfrisör;companies/show/4916013;;2187;Hårvård;
Tallvägen 6, Åsensbruk;Åsensbruk;1-4;4916017;;80;Karl Karlsson Gårdens Vänförening;companies/show/4916017;;2170;Verksamhet i andra intresseorganisationer;
Läperud 4, Mellerud;Mellerud;0;4916024;;80;Åhman, Ingegerd Jenny Maria;companies/show/4916024;;1098;Blandat jordbruk;
Grinstad Långerud 3, Mellerud;Mellerud;0;4937934;;80;JS : Partner;companies/show/4937934;;1528;Byggande av bostadshus och andra byggnader;
Bäckens Gård 1, Mellerud;Mellerud;10-19;4937937;;80;Hilmerdal AB;companies/show/4937937;;1089;Uppfödning av smågrisar;
Tegen 12, Dalskog;Dalskog;0;4937947;;80;Johansson, Carl Fredrik Johannes;companies/show/4937947;;1098;Blandat jordbruk;
Norra Myckeläng 3, Mellerud;Mellerud;0;4937949;;80;Qvist, Louise Jessica;companies/show/4937949;;1597;Partihandel med spannmål, råtobak, utsäde och djurfoder;
Hökeberg 1, Mellerud;Mellerud;0;4937955;snickare;80;Nyman, Sven Johan Christer;companies/show/4937955;;1555;Byggnadssnickeriarbeten;
Nygatan 7, Mellerud;Mellerud;;4957529;;80;Molino Interiör AB;companies/show/4957529;;1758;Postorderhandel och detaljhandel på internet med övriga varor;
Sjöbrisgatan 3, Mellerud;Mellerud;1-4;4957538;;80;Jme i Väst AB;companies/show/4957538;;1543;Mark- och grundarbeten;
Storgatan 36, Mellerud;Mellerud;10000-;4957543;;80;Västra Götalandsregionen;companies/show/4957543;;2090;Specialiserad sluten somatisk hälso- och sjukvård på sjukhus;Folkhögskolan Trollhättan, Filial M
Storvägen 21 B, Åsensbruk;Åsensbruk;0;4957545;"Restaurant
Restaurang
Matställe
Bar";80;Dabbagh, Razkallah;companies/show/4957545;;1829;Restaurangverksamhet;
Gråfålerud Rö 1, Mellerud;Mellerud;0;4957553;;80;Dahlqvist, Ida Josefin Anette;companies/show/4957553;;2132;Artistisk verksamhet;
Stallgatan 2, Mellerud;Mellerud;0;4976142;;80;Vilhelmsson, Marie-Lie Emmy Denise;companies/show/4976142;;1919;Uthyrning och förvaltning av egna eller arrenderade bostäder;
Trollungebyn Torpet 1, Dalskog;Dalskog;0;4976144;;80;Elvin, Emil Gunnar;companies/show/4976144;;1098;Blandat jordbruk;
Parkgatan 19, Mellerud;Mellerud;1-4;4976148;"Restaurant
Restaurang
Matställe
Bar";80;"Asad &amp; Zain AB";companies/show/4976148;;1829;Restaurangverksamhet;
Ryrsvägen 40, Köpmannebro;Köpmannebro;1-4;4976156;fastighetsmäklare,mäklare;80;Svensons Egendomsaffär AB;companies/show/4976156;;1925;Fastighetsförmedling;
Gränsgatan 59, Mellerud;Mellerud;0;4994066;;80;By Elinh;companies/show/4994066;;2188;Skönhetsvård;
Bäckens Gård 1, Mellerud;Mellerud;0;4994076;;80;Hilmér, Oscar Olof;companies/show/4994076;;1921;Uthyrning och förvaltning av egna eller arrenderade, andra lokaler;
Muggerud 10, Mellerud;Mellerud;1-4;4994079;;80;Muggeruds Industriservice AB;companies/show/4994079;;1378;Metallegoarbeten;
Svankila Saxvik 1, Köpmannebro;Köpmannebro;0;5010861;;80;Fors Kvarn Fastighetsförvaltning;companies/show/5010861;;1566;Uthyrning av bygg- och anläggningsmaskiner med förare;
Svankila Kasenberg 1, Köpmannebro;Köpmannebro;0;5010868;;80;Glenn Fri Furniture;companies/show/5010868;;1734;Specialiserad butikshandel med guldsmedsvaror och smycken;
Anolfsbyn Falkerud 1, Mellerud;Mellerud;1-4;5010875;;80;"Mellerud&#39;s Brandservice";companies/show/5010875;;1543;Mark- och grundarbeten;
Gränsgatan 55, Mellerud;Mellerud;0;5010877;"bilhandel
bilhandlare";80;Persson, Kjell Gunnar;companies/show/5010877;;1570;Handel med personbilar och lätta motorfordon;
Kurt Hellbergs gata 4, Mellerud;Mellerud;1-4;5010880;Åkeri;80;Trestads Frakt i Väst AB;companies/show/5010880;;1775;Vägtransport, godstrafik;
Snäcke Kanal 7, Köpmannebro;Köpmannebro;1-4;5010882;;80;AB Kreativ Försäljning i Sverige;companies/show/5010882;;1940;Konsultverksamhet avseende företags organisation;
Örsberg Smekerud, Mellerud;Mellerud;0;5029327;;80;Eklund Produktion AB;companies/show/5029327;;1940;Konsultverksamhet avseende företags organisation;
Hällan Slättängen 1, Dals Rostock;Dals Rostock;0;5029332;snickare;80;Sten-Åke Vallentin Bygg;companies/show/5029332;;1555;Byggnadssnickeriarbeten;
Hagtornsvägen 3, Dalskog;Dalskog;1-4;5029338;elektriker;80;Tim Eriksson El AB;companies/show/5029338;;1546;Elinstallationer;
Kobergsvägen 3, Åsensbruk;Åsensbruk;1-4;5029344;;80;Wepac Automation AB;companies/show/5029344;;1589;Provisionshandel med maskiner, industriell utrustning, fartyg och luftfartyg utom kontorsutrustning och datorer;
Telefongatan 6, Mellerud;Mellerud;2000-2999;5029345;livsmedelsaffär;80;Coop Väst AB;companies/show/5029345;;1668;Livsmedelshandel med brett sortiment, ej varuhus eller stormarknad;Coop Mellerud
Storvägen 40, Åsensbruk;Åsensbruk;2000-2999;5029346;livsmedelsaffär;80;Coop Väst AB;companies/show/5029346;;1668;Livsmedelshandel med brett sortiment, ej varuhus eller stormarknad;Coop Åsensbruk
Korsängen Lillesjön 1, Dals Rostock;Dals Rostock;0;5029347;;80;Fridh, Roger John-Olov;companies/show/5029347;;2134;Litterärt och konstnärligt skapande;
Jakobsbyn 5, Mellerud;Mellerud;1-4;5029350;"bilhandel
bilhandlare";80;Scandbil AB;companies/show/5029350;;1570;Handel med personbilar och lätta motorfordon;
Kurt Hellbergs gata 4, Mellerud;Mellerud;1-4;5029351;;80;Dalslands Digitaltjänst AB;companies/show/5029351;;1867;Dataprogrammering;
Frejagatan 12, Mellerud;Mellerud;0;5048164;;80;S Höke Mfl;companies/show/5048164;;1107;Skogsförvaltning;
Ör Hagen 18, Mellerud;Mellerud;0;5048168;;80;Zauber, Paul Jörgen;companies/show/5048168;;1378;Metallegoarbeten;
Sörhagen 2, Mellerud;Mellerud;0;5048169;;80;Grolander, Cecilia Christina;companies/show/5048169;;1101;Service till husdjursskötsel;
